latitude,longitude,business_name,street_address,zip,NAICS_2017_6digit_code,NAICS_2017_6digit_desc,NAICS_2017_2digit_code,NAICS_2017_2digit_desc,estimated_employment,employment_buckets,mainstreet,geometry,district,index_right,DISTRICT
42.255827,-71.122796,zaz restaurant,1238 River St,2136,722511,Full-Service Restaurants,72,Accommodation and Food Services,8.0,1 to 9,Hyde Park,POINT (-71.122796 42.255827),,8,5
42.255039,-71.120529,z & r convenience plus,59 Fairmount Ave,2136,445120,Convenience Stores,44,Retail Trade,2.0,1 to 9,Hyde Park,POINT (-71.120529 42.255039),,8,5
42.256805,-71.123543,youth & family enrichment service,1234 Hyde Park Ave,2136,624110,Child and Youth Services,62,Healthcare and Social Assistance,5.0,1 to 9,Hyde Park,POINT (-71.123543 42.256805),,8,5
42.257182,-71.1204,ymca,1137 River St,2136,624110,Child and Youth Services,62,Healthcare and Social Assistance,100.0,100+,Hyde Park,POINT (-71.1204 42.257182),,8,5
42.256069,-71.124769,x trinity fitness,1295 River St,2136,451110,Sporting Goods Stores,45,Retail Trade,5.0,1 to 9,Hyde Park,POINT (-71.124769 42.256069),,8,5
42.255457,-71.124008,wy hair salon & barbershop,1276 Hyde Park Ave,2136,812112,Beauty Salons,81,Other Services,3.0,1 to 9,Hyde Park,POINT (-71.124008 42.255457),,8,5
42.255699,-71.123795,wwp wireless inc,1266 River St,2136,517312,Wireless Telecommunications Carriers (except Satellite),51,Information,2.0,1 to 9,Hyde Park,POINT (-71.123795 42.255699),,8,5
42.256104,-71.120395,work up institute,1166 River St,2136,541612,Human Resources Consulting Services,54,"Professional, Scientific, and Technical Services",0.0,Not Available,Hyde Park,POINT (-71.120395 42.256104),,8,5
42.255226,-71.124008,willy wireless,1284 Hyde Park Ave,2136,517312,Wireless Telecommunications Carriers (except Satellite),51,Information,2.0,1 to 9,Hyde Park,POINT (-71.124008 42.255226),,8,5
42.255539,-71.123335,western union agent location,1248 River St,2136,522320,"Financial Transactions Processing, Reserve, and Clearinghouse Activities",52,Finance and Insurance,3.0,1 to 9,Hyde Park,POINT (-71.123335 42.255539),,8,5
42.256104,-71.120395,we clean well,1166 River St,2136,561720,Janitorial Services,56,"Adminstrative, Support, Waste Management, and Remediation Services",0.0,Not Available,Hyde Park,POINT (-71.120395 42.256104),,8,5
42.253511,-71.124898,walgreens,1329 Hyde Park Ave,2136,446110,Pharmacies and Drug Stores,44,Retail Trade,30.0,25 to 49,Hyde Park,POINT (-71.124898 42.253511),,8,5
42.256393,-71.121743,waggey land,1203 River St,2136,812910,Pet Care (except Veterinary) Services,81,Other Services,11.0,10 to 24,Hyde Park,POINT (-71.121743 42.256393),,8,5
42.255457,-71.124008,w y services & retail inc,1276 Hyde Park Ave,2136,452210,Department Stores,45,Retail Trade,3.0,1 to 9,Hyde Park,POINT (-71.124008 42.255457),,8,5
42.255699,-71.123817,voltage park llc,1260 River St,2136,0,,99,Undefined,0.0,Not Available,Hyde Park,POINT (-71.123817 42.255699),,8,5
42.256104,-71.120395,vieux's views photography,1166 River St,2136,541922,Commercial Photography,54,"Professional, Scientific, and Technical Services",2.0,1 to 9,Hyde Park,POINT (-71.120395 42.256104),,8,5
42.255451,-71.124485,usps,1269 Hyde Park Ave,2136,491110,Postal Service,49,Transportation and Warehosuing,60.0,50 to 99,Hyde Park,POINT (-71.124485 42.255451),,8,5
42.256196,-71.122803,unlimited realty solutions boston real estate school,1229 River St,2136,611519,Other Technical and Trade Schools,61,Educational Services,7.0,1 to 9,Hyde Park,POINT (-71.122803 42.256196),,8,5
42.256161,-71.121809,union printworks,1193 River St,2136,541890,Other Services Related to Advertising,54,"Professional, Scientific, and Technical Services",3.0,1 to 9,Hyde Park,POINT (-71.121809 42.256161),,8,5
42.255539,-71.123335,union chiropractic clinic,1242 River St,2136,621310,Offices of Chiropractors,62,Healthcare and Social Assistance,3.0,1 to 9,Hyde Park,POINT (-71.123335 42.255539),,8,5
42.256329,-71.123802,u-smile p c,1248 Hyde Park Ave,2136,621210,Offices of Dentists,62,Healthcare and Social Assistance,5.0,1 to 9,Hyde Park,POINT (-71.123802 42.256329),,8,5
42.256824,-71.12412,twentieth century bowling lanes,1231 Hyde Park Ave,2136,713950,Bowling Centers,71,"Arts, Entertainment, and Recreation",5.0,1 to 9,Hyde Park,POINT (-71.12412 42.256824),,8,5
42.255873,-71.120747,toward independent living,1174 River St,2136,624190,Other Individual and Family Services,62,Healthcare and Social Assistance,9.0,1 to 9,Hyde Park,POINT (-71.120747 42.255873),,8,5
42.255591,-71.12069,tommy s pizzeria hyde park,10 Fairmount Ave,2136,722511,Full-Service Restaurants,72,Accommodation and Food Services,2.0,1 to 9,Hyde Park,POINT (-71.12069 42.255591),,8,5
42.255282,-71.120279,timothy murphy insurance,50 Fairmount Ave,2136,524210,Insurance Agencies and Brokerages,52,Finance and Insurance,2.0,1 to 9,Hyde Park,POINT (-71.120279 42.255282),,8,5
42.255417,-71.120978,tierney realty group,9 Fairmount Ave,2136,531210,Offices of Real Estate Agents and Brokers,53,Real Estate Rental and Leasing,6.0,1 to 9,Hyde Park,POINT (-71.120978 42.255417),,8,5
42.255328,-71.124198,thomas f gallagher insurance,1270 Hyde Park Ave,2136,524210,Insurance Agencies and Brokerages,52,Finance and Insurance,2.0,1 to 9,Hyde Park,POINT (-71.124198 42.255328),,8,5
42.256069,-71.124769,the tee shop,1295 River St,2136,451110,Sporting Goods Stores,45,Retail Trade,5.0,1 to 9,Hyde Park,POINT (-71.124769 42.256069),,8,5
42.255405,-71.121162,the switch co-op,21 Fairmount Ave,2136,813990,"Other Similar Organizations (except Business, Professional, Labor, and Political Organizations)",81,Other Services,6.0,1 to 9,Hyde Park,POINT (-71.121162 42.255405),,8,5
42.256064,-71.12461,the perfect threading,1285 River St,2136,812112,Beauty Salons,81,Other Services,3.0,1 to 9,Hyde Park,POINT (-71.12461 42.256064),,8,5
42.254499,-71.120155,tcs coffee house,87 Fairmount Ave,2136,722515,Snack and Nonalcoholic Beverage Bars,72,Accommodation and Food Services,5.0,1 to 9,Hyde Park,POINT (-71.120155 42.254499),,8,5
42.255918,-71.124409,talk & wok cafe,1277 River St,2136,722511,Full-Service Restaurants,72,Accommodation and Food Services,3.0,1 to 9,Hyde Park,POINT (-71.124409 42.255918),,8,5
42.255839,-71.122684,super discount store,1232 River St,2136,452210,Department Stores,45,Retail Trade,2.0,1 to 9,Hyde Park,POINT (-71.122684 42.255839),,8,5
42.255395,-71.124596,subway,1281 Hyde Park Ave,2136,722511,Full-Service Restaurants,72,Accommodation and Food Services,3.0,1 to 9,Hyde Park,POINT (-71.124596 42.255395),,8,5
42.255587,-71.123984,star food mart,1266 Hyde Park Ave,2136,445120,Convenience Stores,44,Retail Trade,3.0,1 to 9,Hyde Park,POINT (-71.123984 42.255587),,8,5
42.255539,-71.123335,standhard physical therapy llc,1242 River St,2136,621340,"Offices of Physical, Occupational and Speech Therapists, and Audiologists",62,Healthcare and Social Assistance,4.0,1 to 9,Hyde Park,POINT (-71.123335 42.255539),,8,5
42.255402,-71.12096,southwest boston community development corporation,11 Fairmount Ave,2136,0,,99,Undefined,5.0,1 to 9,Hyde Park,POINT (-71.12096 42.255402),,8,5
42.255402,-71.12096,southwest boston community dev,11 Fairmount Ave,2136,813319,Other Social Advocacy Organizations,81,Other Services,4.0,1 to 9,Hyde Park,POINT (-71.12096 42.255402),,8,5
42.256196,-71.122803,smoken' grooves communications,1227 River St,2136,517919,All Other Telecommunications,51,Information,4.0,1 to 9,Hyde Park,POINT (-71.122803 42.256196),,8,5
42.255226,-71.124008,smoke & ashes tobacco co,1284 Hyde Park Ave,2136,453991,Tobacco Stores,45,Retail Trade,2.0,1 to 9,Hyde Park,POINT (-71.124008 42.255226),,8,5
42.252998,-71.125183,shun zhang,1349 Hyde Park Ave,2136,453220,"Gift, Novelty, and Souvenir Stores",45,Retail Trade,3.0,1 to 9,Hyde Park,POINT (-71.125183 42.252998),,8,5
42.256039,-71.124268,sharps barber shop,1261 Hyde Park Ave,2136,812111,Barber Shops,81,Other Services,3.0,1 to 9,Hyde Park,POINT (-71.124268 42.256039),,8,5
42.256025,-71.123692,shakara inc,1261 River St,2136,448140,Family Clothing Stores,44,Retail Trade,1.0,1 to 9,Hyde Park,POINT (-71.123692 42.256025),,8,5
42.255282,-71.120279,shagoury & tominey,54 Fairmount Ave,2136,541110,Offices of Lawyers,54,"Professional, Scientific, and Technical Services",2.0,1 to 9,Hyde Park,POINT (-71.120279 42.255282),,8,5
42.255105,-71.126066,sbs salons,11 Business St,2136,812112,Beauty Salons,81,Other Services,3.0,1 to 9,Hyde Park,POINT (-71.126066 42.255105),,8,5
42.256072,-71.124361,satguru pyaray inc,1283 River St,2136,0,,99,Undefined,0.0,Not Available,Hyde Park,POINT (-71.124361 42.256072),,8,5
42.254719,-71.12027,san santiago el patron,77 Fairmount Ave,2136,722511,Full-Service Restaurants,72,Accommodation and Food Services,8.0,1 to 9,Hyde Park,POINT (-71.12027 42.254719),,8,5
42.256196,-71.122803,rsvp event space,1225 River St,2136,711310,"Promoters of Performing Arts, Sports, and Similar Events with Facilities",71,"Arts, Entertainment, and Recreation",3.0,1 to 9,Hyde Park,POINT (-71.122803 42.256196),,8,5
42.255451,-71.124485,roto-rooter plumbing & water cleanup,1269 Hyde Park Ave,2136,238220,"Plumbing, Heating, and Air-Conditioning Contractors",23,Construction,3.0,1 to 9,Hyde Park,POINT (-71.124485 42.255451),,8,5
42.256824,-71.12412,rons grmet homemade ice cream,1231 Hyde Park Ave,2136,722515,Snack and Nonalcoholic Beverage Bars,72,Accommodation and Food Services,8.0,1 to 9,Hyde Park,POINT (-71.12412 42.256824),,8,5
42.255402,-71.12096,ronald pierre louis llc,11 Fairmount Ave,2136,541211,Offices of Certified Public Accountants,54,"Professional, Scientific, and Technical Services",5.0,1 to 9,Hyde Park,POINT (-71.12096 42.255402),,8,5
42.25562,-71.121642,rockland trust company,288 Union St,2370,522110,Commercial Banking,52,Finance and Insurance,50.0,50 to 99,Hyde Park,POINT (-71.121642 42.25562),,8,5
42.255395,-71.124596,roberson law group pc,1283 Hyde Park Ave,2136,541110,Offices of Lawyers,54,"Professional, Scientific, and Technical Services",4.0,1 to 9,Hyde Park,POINT (-71.124596 42.255395),,8,5
42.25667,-71.123894,roberson & associates,1234 Hyde Park Ave,2136,0,,99,Undefined,0.0,Not Available,Hyde Park,POINT (-71.123894 42.25667),,8,5
42.255145,-71.120654,riverside theatre works inc,45 Fairmount Ave,2136,711110,Theater Companies and Dinner Theaters,71,"Arts, Entertainment, and Recreation",2.0,1 to 9,Hyde Park,POINT (-71.120654 42.255145),,8,5
42.256072,-71.124361,riverside flower shop,1283 River St,2136,453110,Florists,45,Retail Trade,3.0,1 to 9,Hyde Park,POINT (-71.124361 42.256072),,8,5
42.256023,-71.123711,river grill restaurant cafe inc,1263 River St,2136,722511,Full-Service Restaurants,72,Accommodation and Food Services,9.0,1 to 9,Hyde Park,POINT (-71.123711 42.256023),,8,5
42.255736,-71.120835,rincon restaurant,18 Fairmount Ave,2136,722511,Full-Service Restaurants,72,Accommodation and Food Services,8.0,1 to 9,Hyde Park,POINT (-71.120835 42.255736),,8,5
42.255736,-71.120835,rincon caribeno restaurant,18 Fairmount Ave,2136,722511,Full-Service Restaurants,72,Accommodation and Food Services,8.0,1 to 9,Hyde Park,POINT (-71.120835 42.255736),,8,5
42.255736,-71.120835,ricon caribeno,18 Fairmount Ave,2136,722511,Full-Service Restaurants,72,Accommodation and Food Services,3.0,1 to 9,Hyde Park,POINT (-71.120835 42.255736),,8,5
42.25618,-71.122981,ricolombia restaurant,1231 River St,2136,722511,Full-Service Restaurants,72,Accommodation and Food Services,8.0,1 to 9,Hyde Park,POINT (-71.122981 42.25618),,8,5
42.256019,-71.124258,richard c hyman,1259 Hyde Park Ave,2136,541110,Offices of Lawyers,54,"Professional, Scientific, and Technical Services",2.0,1 to 9,Hyde Park,POINT (-71.124258 42.256019),,8,5
42.256016,-71.124922,red moon chinese resturant,1299 River St,2136,722511,Full-Service Restaurants,72,Accommodation and Food Services,8.0,1 to 9,Hyde Park,POINT (-71.124922 42.256016),,8,5
42.257603,-71.123431,rcm tax service,1210 Hyde Park Ave,2136,541213,Tax Preparation Services,54,"Professional, Scientific, and Technical Services",4.0,1 to 9,Hyde Park,POINT (-71.123431 42.257603),,8,5
42.255699,-71.123817,rainbow learning center,1260 River St,2136,611110,Elementary and Secondary Schools,61,Educational Services,16.0,10 to 24,Hyde Park,POINT (-71.123817 42.255699),,8,5
42.257962,-71.123975,radio energie,1205 Hyde Park Ave,2136,515112,Radio Stations,51,Information,17.0,10 to 24,Hyde Park,POINT (-71.123975 42.257962),,8,5
42.254499,-71.120155,qadosh hair studio,87 Fairmount Ave,2136,812112,Beauty Salons,81,Other Services,3.0,1 to 9,Hyde Park,POINT (-71.120155 42.254499),,8,5
42.254608,-71.119835,pure joy flowers,84 Fairmount Ave,2136,453110,Florists,45,Retail Trade,3.0,1 to 9,Hyde Park,POINT (-71.119835 42.254608),,8,5
42.255402,-71.12096,pulgini & norton llp,11 Fairmount Ave,2136,541110,Offices of Lawyers,54,"Professional, Scientific, and Technical Services",3.0,1 to 9,Hyde Park,POINT (-71.12096 42.255402),,8,5
42.254698,-71.119816,private office barbershop,76 Fairmount Ave,2136,812111,Barber Shops,81,Other Services,2.0,1 to 9,Hyde Park,POINT (-71.119816 42.254698),,8,5
42.254836,-71.120404,portman properties,63 Fairmount Ave,2136,531210,Offices of Real Estate Agents and Brokers,53,Real Estate Rental and Leasing,12.0,10 to 24,Hyde Park,POINT (-71.120404 42.254836),,8,5
42.256345,-71.120373,pierre's variety store,1156 River St,2136,445120,Convenience Stores,44,Retail Trade,2.0,1 to 9,Hyde Park,POINT (-71.120373 42.256345),,8,5
42.256069,-71.124769,perry moran associates inc,1295 River St,2136,561422,Telemarketing Bureaus and Other Contact Centers,56,"Adminstrative, Support, Waste Management, and Remediation Services",5.0,1 to 9,Hyde Park,POINT (-71.124769 42.256069),,8,5
42.25579,-71.123126,perfume corner,1244 River St,2136,446120,"Cosmetics, Beauty Supplies, and Perfume Stores",44,Retail Trade,3.0,1 to 9,Hyde Park,POINT (-71.123126 42.25579),,8,5
42.256607,-71.12252,peoples club of nigeria boston branch usa inc,38 Winthrop St,2136,813410,Civic and Social Organizations,81,Other Services,2.0,1 to 9,Hyde Park,POINT (-71.12252 42.256607),,8,5
42.257471,-71.123371,penticostal church of the last hr,37 Everett St,2136,813110,Religious Organizations,81,Other Services,2.0,1 to 9,Hyde Park,POINT (-71.123371 42.257471),,8,5
42.257962,-71.123975,pentecostals of boston,1205 Hyde Park Ave,2136,813110,Religious Organizations,81,Other Services,3.0,1 to 9,Hyde Park,POINT (-71.123975 42.257962),,8,5
42.255376,-71.12204,pennacchio funeral service,34 Oak St,2136,812210,Funeral Homes and Funeral Services,81,Other Services,1.0,1 to 9,Hyde Park,POINT (-71.12204 42.255376),,8,5
42.256393,-71.121743,pdm associates,1191 River St,2136,323111,Commercial Printing (except Screen and Books),32,Manufacturing,5.0,1 to 9,Hyde Park,POINT (-71.121743 42.256393),,8,5
42.256046,-71.123589,passion beauty supply & salon llc,1257 River St,2136,812112,Beauty Salons,81,Other Services,3.0,1 to 9,Hyde Park,POINT (-71.123589 42.256046),,8,5
42.255031,-71.120673,paradise beauty salon,51 Fairmount Ave,2136,812112,Beauty Salons,81,Other Services,3.0,1 to 9,Hyde Park,POINT (-71.120673 42.255031),,8,5
42.255707,-71.123917,papa gino's,1270 River St,2136,722511,Full-Service Restaurants,72,Accommodation and Food Services,15.0,10 to 24,Hyde Park,POINT (-71.123917 42.255707),,8,5
42.255402,-71.12096,overbrook,11 Fairmount Ave,2136,423490,Other Professional Equipment and Supplies Merchant Wholesalers,42,Wholesale Trade,3.0,1 to 9,Hyde Park,POINT (-71.12096 42.255402),,8,5
42.256824,-71.12412,one step beyond martial arts,1231 Hyde Park Ave,2136,611620,Sports and Recreation Instruction,61,Educational Services,1.0,1 to 9,Hyde Park,POINT (-71.12412 42.256824),,8,5
42.256072,-71.124361,odb liquors,1253 Hyde Park Ave,2136,445310,"Beer, Wine, and Liquor Stores",44,Retail Trade,2.0,1 to 9,Hyde Park,POINT (-71.124361 42.256072),,8,5
42.256025,-71.123692,new york fried chicken,1251 River St,2136,722511,Full-Service Restaurants,72,Accommodation and Food Services,8.0,1 to 9,Hyde Park,POINT (-71.123692 42.256025),,8,5
42.257035,-71.121455,new beginnings academy incorporated,20 Central Ave,2136,611110,Elementary and Secondary Schools,61,Educational Services,16.0,10 to 24,Hyde Park,POINT (-71.121455 42.257035),,8,5
42.257271,-71.121641,new beginnings academy,14 Everett St,2136,624410,Child Day Care Services,62,Healthcare and Social Assistance,25.0,25 to 49,Hyde Park,POINT (-71.121641 42.257271),,8,5
42.255699,-71.123817,myer dana myer & sons,1260 River St,2136,531210,Offices of Real Estate Agents and Brokers,53,Real Estate Rental and Leasing,0.0,Not Available,Hyde Park,POINT (-71.123817 42.255699),,8,5
42.255535,-71.123994,murphy insurance agency,1270 Hyde Park Ave,2136,524210,Insurance Agencies and Brokerages,52,Finance and Insurance,2.0,1 to 9,Hyde Park,POINT (-71.123994 42.255535),,8,5
42.255373,-71.124395,mt olives community center inc,1285 Hyde Park Ave,2136,624110,Child and Youth Services,62,Healthcare and Social Assistance,10.0,10 to 24,Hyde Park,POINT (-71.124395 42.255373),,8,5
42.255373,-71.124395,mount olive evangelical church,1285 Hyde Park Ave,2136,813110,Religious Organizations,81,Other Services,3.0,1 to 9,Hyde Park,POINT (-71.124395 42.255373),,8,5
42.254688,-71.120316,monika general beauty supply,73 Fairmount Ave,2136,446120,"Cosmetics, Beauty Supplies, and Perfume Stores",44,Retail Trade,3.0,1 to 9,Hyde Park,POINT (-71.120316 42.254688),,8,5
42.255337,-71.124504,minuteman press,1279 Hyde Park Ave,2136,323111,Commercial Printing (except Screen and Books),32,Manufacturing,4.0,1 to 9,Hyde Park,POINT (-71.124504 42.255337),,8,5
42.253469,-71.124595,mcdonald's,1312 Hyde Park Ave,2136,722511,Full-Service Restaurants,72,Accommodation and Food Services,40.0,25 to 49,Hyde Park,POINT (-71.124595 42.253469),,8,5
42.256069,-71.124769,may's home care services,1295 River St,2136,621610,Home Health Care Services,62,Healthcare and Social Assistance,7.0,1 to 9,Hyde Park,POINT (-71.124769 42.256069),,8,5
42.256478,-71.120284,master mcgraths,1154 River St,2136,722511,Full-Service Restaurants,72,Accommodation and Food Services,8.0,1 to 9,Hyde Park,POINT (-71.120284 42.256478),,8,5
42.25618,-71.122981,maria's hair salon,1235 River St,2136,812112,Beauty Salons,81,Other Services,2.0,1 to 9,Hyde Park,POINT (-71.122981 42.25618),,8,5
42.25618,-71.122981,maria's babrer shop,1235 River St,2136,812111,Barber Shops,81,Other Services,2.0,1 to 9,Hyde Park,POINT (-71.122981 42.25618),,8,5
42.25618,-71.122981,marango llc,1231 River St,2136,0,,99,Undefined,0.0,Not Available,Hyde Park,POINT (-71.122981 42.25618),,8,5
42.256104,-71.120395,maison d'accueil malika inc,1166 River St,2136,813319,Other Social Advocacy Organizations,81,Other Services,9.0,1 to 9,Hyde Park,POINT (-71.120395 42.256104),,8,5
42.255075,-71.12015,mai hair braiding,6 Fairmount Ave,2136,812112,Beauty Salons,81,Other Services,3.0,1 to 9,Hyde Park,POINT (-71.12015 42.255075),,8,5
42.255207,-71.120773,luu & nails,43 Fairmount Ave,2136,812113,Nail Salons,81,Other Services,1.0,1 to 9,Hyde Park,POINT (-71.120773 42.255207),,8,5
42.25667,-71.123894,lowney medical associates,1234 Hyde Park Ave,2136,621111,Offices of Physicians (except Mental Health Specialists),62,Healthcare and Social Assistance,10.0,10 to 24,Hyde Park,POINT (-71.123894 42.25667),,8,5
42.256805,-71.123543,lowney law llc,1234 Hyde Park Ave,2136,541110,Offices of Lawyers,54,"Professional, Scientific, and Technical Services",5.0,1 to 9,Hyde Park,POINT (-71.123543 42.256805),,8,5
42.256046,-71.12365,lovely nail salon,1259 River St,2136,812113,Nail Salons,81,Other Services,2.0,1 to 9,Hyde Park,POINT (-71.12365 42.256046),,8,5
42.254696,-71.120318,los magicos barbershop,79 Fairmount Ave,2136,812111,Barber Shops,81,Other Services,2.0,1 to 9,Hyde Park,POINT (-71.120318 42.254696),,8,5
42.255405,-71.121162,logan square barbershop,1 Fairmount Ave,2136,812111,Barber Shops,81,Other Services,2.0,1 to 9,Hyde Park,POINT (-71.121162 42.255405),,8,5
42.258268,-71.123257,little haiti international cuisine llc,1184 Hyde Park Ave,2136,722511,Full-Service Restaurants,72,Accommodation and Food Services,3.0,1 to 9,Hyde Park,POINT (-71.123257 42.258268),,8,5
42.256064,-71.12461,little haiti international cuisine,1285 River St,2136,722511,Full-Service Restaurants,72,Accommodation and Food Services,8.0,1 to 9,Hyde Park,POINT (-71.12461 42.256064),,8,5
42.257603,-71.123431,lifewatch home care inc,1210 Hyde Park Ave,2136,621610,Home Health Care Services,62,Healthcare and Social Assistance,11.0,10 to 24,Hyde Park,POINT (-71.123431 42.257603),,8,5
42.255451,-71.124485,lifetime physical therapy,1269 Hyde Park Ave,2136,621340,"Offices of Physical, Occupational and Speech Therapists, and Audiologists",62,Healthcare and Social Assistance,0.0,Not Available,Hyde Park,POINT (-71.124485 42.255451),,8,5
42.255306,-71.123978,liberty tax service,1280 Hyde Park Ave,2136,541213,Tax Preparation Services,54,"Professional, Scientific, and Technical Services",4.0,1 to 9,Hyde Park,POINT (-71.123978 42.255306),,8,5
42.256196,-71.122803,le trap couture llc,1225 River St,2136,448140,Family Clothing Stores,44,Retail Trade,2.0,1 to 9,Hyde Park,POINT (-71.122803 42.256196),,8,5
42.25579,-71.121957,las vegas seafood restaurant,6 Maple St,2136,722511,Full-Service Restaurants,72,Accommodation and Food Services,5.0,1 to 9,Hyde Park,POINT (-71.121957 42.25579),,8,5
42.25618,-71.122981,las delicias colombianas,1231 River St,2136,722511,Full-Service Restaurants,72,Accommodation and Food Services,8.0,1 to 9,Hyde Park,POINT (-71.122981 42.25618),,8,5
42.256805,-71.123543,lariion technologies inc,1234 Hyde Park Ave,2136,517919,All Other Telecommunications,51,Information,6.0,1 to 9,Hyde Park,POINT (-71.123543 42.256805),,8,5
42.256441,-71.122568,klein post card service,16 Harvard Ave,2136,424990,Other Miscellaneous Nondurable Goods Merchant Wholesalers,42,Wholesale Trade,4.0,1 to 9,Hyde Park,POINT (-71.122568 42.256441),,8,5
42.256019,-71.124258,kingdom realty group,1259 Hyde Park Ave,2136,531210,Offices of Real Estate Agents and Brokers,53,Real Estate Rental and Leasing,5.0,1 to 9,Hyde Park,POINT (-71.124258 42.256019),,8,5
42.256186,-71.121488,king's new & used things,1185 River St,2136,453998,All Other Miscellaneous Store Retailers (except Tobacco Stores),45,Retail Trade,23.0,10 to 24,Hyde Park,POINT (-71.121488 42.256186),,8,5
42.255699,-71.120781,king coles trading co inc,20 Fairmount Ave,2136,522291,Consumer Lending,52,Finance and Insurance,3.0,1 to 9,Hyde Park,POINT (-71.120781 42.255699),,8,5
42.253707,-71.124329,kieran jordan dance,1310 Hyde Park Ave,2136,611610,Fine Arts Schools,61,Educational Services,3.0,1 to 9,Hyde Park,POINT (-71.124329 42.253707),,8,5
42.256345,-71.120373,kenney clnrs,1162 River St,2136,812320,Drycleaning and Laundry Services (except Coin-Operated),81,Other Services,3.0,1 to 9,Hyde Park,POINT (-71.120373 42.256345),,8,5
42.257091,-71.123461,jps fitness solution,1226 Hyde Park Ave,2136,713940,Fitness and Recreational Sports Centers,71,"Arts, Entertainment, and Recreation",6.0,1 to 9,Hyde Park,POINT (-71.123461 42.257091),,8,5
42.256019,-71.124258,jonathan & associates inc,1259 Hyde Park Ave,2136,541110,Offices of Lawyers,54,"Professional, Scientific, and Technical Services",4.0,1 to 9,Hyde Park,POINT (-71.124258 42.256019),,8,5
42.256393,-71.121743,jlor creative design & print,1203 River St,2136,518210,"Data Processing, Hosting, and Related Services",51,Information,15.0,10 to 24,Hyde Park,POINT (-71.121743 42.256393),,8,5
42.256196,-71.122803,jireh ministries inc,1227 River St,2136,813110,Religious Organizations,81,Other Services,3.0,1 to 9,Hyde Park,POINT (-71.122803 42.256196),,8,5
42.256196,-71.122803,jireh beauty salon,1227 River St,2136,812112,Beauty Salons,81,Other Services,3.0,1 to 9,Hyde Park,POINT (-71.122803 42.256196),,8,5
42.255039,-71.120529,jilp corp,59 Fairmount Ave,2136,0,,99,Undefined,0.0,Not Available,Hyde Park,POINT (-71.120529 42.255039),,8,5
42.25568,-71.123764,jerusalem furniture,1256 River St,2136,442110,Furniture Stores,44,Retail Trade,2.0,1 to 9,Hyde Park,POINT (-71.123764 42.25568),,8,5
42.255512,-71.12376,janets hair braiding,1260 Hyde Park Ave,2136,812199,Other Personal Care Services,81,Other Services,3.0,1 to 9,Hyde Park,POINT (-71.12376 42.255512),,8,5
42.25618,-71.122981,jaimie dollar discount llc,1237 River St,2136,452210,Department Stores,45,Retail Trade,3.0,1 to 9,Hyde Park,POINT (-71.122981 42.25618),,8,5
42.257116,-71.119795,jade's jewelry,1130 River St,2136,448310,Jewelry Stores,44,Retail Trade,2.0,1 to 9,Hyde Park,POINT (-71.119795 42.257116),,8,5
42.255402,-71.12096,jackman professional accounting,11 Fairmount Ave,2136,541219,Other Accounting Services,54,"Professional, Scientific, and Technical Services",6.0,1 to 9,Hyde Park,POINT (-71.12096 42.255402),,8,5
42.256019,-71.124258,j i express inc,1259 Hyde Park Ave,2136,0,,99,Undefined,0.0,Not Available,Hyde Park,POINT (-71.124258 42.256019),,8,5
42.257547,-71.12408,j & c auto body ii,1215 Hyde Park Ave,2136,811121,"Automotive Body, Paint, and Interior Repair and Maintenance",81,Other Services,4.0,1 to 9,Hyde Park,POINT (-71.12408 42.257547),,8,5
42.257603,-71.123431,j & c auto body,1210 Hyde Park Ave,2136,811121,"Automotive Body, Paint, and Interior Repair and Maintenance",81,Other Services,2.0,1 to 9,Hyde Park,POINT (-71.123431 42.257603),,8,5
42.254616,-71.119818,intriguing hair llc,82 Fairmount Ave,2136,812199,Other Personal Care Services,81,Other Services,3.0,1 to 9,Hyde Park,POINT (-71.119818 42.254616),,8,5
42.255322,-71.126142,intoxalock ignition interlock,1318 River St,2136,811111,General Automotive Repair,81,Other Services,4.0,1 to 9,Hyde Park,POINT (-71.126142 42.255322),,8,5
42.256104,-71.120395,international association,1166 River St,2136,813910,Business Associations,81,Other Services,6.0,1 to 9,Hyde Park,POINT (-71.120395 42.256104),,8,5
42.255145,-71.120654,inspire arts & music,45 Fairmount Ave,2136,712110,Museums,71,"Arts, Entertainment, and Recreation",3.0,1 to 9,Hyde Park,POINT (-71.120654 42.255145),,8,5
42.255146,-71.120689,hyde park youth percussion,47 Fairmount Ave,2136,611610,Fine Arts Schools,61,Educational Services,3.0,1 to 9,Hyde Park,POINT (-71.120689 42.255146),,8,5
42.257626,-71.120361,hyde park seventh-day,6 Webster St,2136,813110,Religious Organizations,81,Other Services,1.0,1 to 9,Hyde Park,POINT (-71.120361 42.257626),,8,5
42.257088,-71.122369,hyde park public library,35 Harvard Ave,2136,519120,Libraries and Archives,51,Information,8.0,1 to 9,Hyde Park,POINT (-71.122369 42.257088),,8,5
42.256433,-71.121487,hyde park plumbing & heating,12 Central Ave,2136,238220,"Plumbing, Heating, and Air-Conditioning Contractors",23,Construction,3.0,1 to 9,Hyde Park,POINT (-71.121487 42.256433),,8,5
42.256436,-71.120993,hyde park municipal building community center inc,1179 River St,2136,921120,Legislative Bodies,92,Public Administration,10.0,10 to 24,Hyde Park,POINT (-71.120993 42.256436),,8,5
42.256046,-71.12365,hyde park lovely nails-waxing,1259 River St,2136,812113,Nail Salons,81,Other Services,3.0,1 to 9,Hyde Park,POINT (-71.12365 42.256046),,8,5
42.255571,-71.124201,hyde park dental lab,1259 Hyde Park Ave,2136,339116,Dental Laboratories,33,Manufacturing,1.0,1 to 9,Hyde Park,POINT (-71.124201 42.255571),,8,5
42.25589,-71.121953,hyde park dental associates,1212 River St,2136,621210,Offices of Dentists,62,Healthcare and Social Assistance,4.0,1 to 9,Hyde Park,POINT (-71.121953 42.25589),,8,5
42.256436,-71.120993,hyde park community center,1179 River St,2136,813319,Other Social Advocacy Organizations,81,Other Services,11.0,10 to 24,Hyde Park,POINT (-71.120993 42.256436),,8,5
42.25608,-71.120774,hyde park co-op charitable,1172 River St,2136,541720,Research and Development in the Social Sciences and Humanities,54,"Professional, Scientific, and Technical Services",0.0,Not Available,Hyde Park,POINT (-71.120774 42.25608),,8,5
42.256086,-71.124238,hyde park cleaners,1257 Hyde Park Ave,2136,812320,Drycleaning and Laundry Services (except Coin-Operated),81,Other Services,3.0,1 to 9,Hyde Park,POINT (-71.124238 42.256086),,8,5
42.256805,-71.123543,hyde park behavioral health,1234 Hyde Park Ave,2136,621399,Offices of All Other Miscellaneous Health Practitioners,62,Healthcare and Social Assistance,10.0,10 to 24,Hyde Park,POINT (-71.123543 42.256805),,8,5
42.257311,-71.121307,hyde park art association,26 Central Ave,2136,453920,Art Dealers,45,Retail Trade,1.0,1 to 9,Hyde Park,POINT (-71.121307 42.257311),,8,5
42.255245,-71.123878,home america realty & investment,6 Oak St,2136,531210,Offices of Real Estate Agents and Brokers,53,Real Estate Rental and Leasing,5.0,1 to 9,Hyde Park,POINT (-71.123878 42.255245),,8,5
42.255395,-71.124596,haitian american bar association inc,1283 Hyde Park Ave,2136,813910,Business Associations,81,Other Services,4.0,1 to 9,Hyde Park,POINT (-71.124596 42.255395),,8,5
42.255273,-71.120313,hair by changes,52 Fairmount Ave,2136,812112,Beauty Salons,81,Other Services,2.0,1 to 9,Hyde Park,POINT (-71.120313 42.255273),,8,5
42.256064,-71.12461,hair braiding,1285 River St,2136,812112,Beauty Salons,81,Other Services,3.0,1 to 9,Hyde Park,POINT (-71.12461 42.256064),,8,5
42.256393,-71.121743,h&r block,1197 River St,2136,541213,Tax Preparation Services,54,"Professional, Scientific, and Technical Services",2.0,1 to 9,Hyde Park,POINT (-71.121743 42.256393),,8,5
42.255146,-71.120689,great east music store,47 Fairmount Ave,2136,451140,Musical Instrument and Supplies Stores,45,Retail Trade,3.0,1 to 9,Hyde Park,POINT (-71.120689 42.255146),,8,5
42.257271,-71.121641,god is here,14 Everett St,2136,813110,Religious Organizations,81,Other Services,3.0,1 to 9,Hyde Park,POINT (-71.121641 42.257271),,8,5
42.255547,-71.120382,gcp beauty corp,4 Fairmount Ave,2136,812112,Beauty Salons,81,Other Services,3.0,1 to 9,Hyde Park,POINT (-71.120382 42.255547),,8,5
42.254552,-71.119709,gangemi woodworking inc,2 2nd New Way,2136,238350,Finish Carpentry Contractors,23,Construction,3.0,1 to 9,Hyde Park,POINT (-71.119709 42.254552),,8,5
42.256402,-71.122004,fun fun bakery,15 Harvard Ave,2136,311811,Retail Bakeries,31,Manufacturing,7.0,1 to 9,Hyde Park,POINT (-71.122004 42.256402),,8,5
42.256433,-71.121487,frank's glass & auto services inc,12 Central Ave,2136,444190,Other Building Material Dealers,44,Retail Trade,2.0,1 to 9,Hyde Park,POINT (-71.121487 42.256433),,8,5
42.256161,-71.121823,frank d colagiovanni,1195 River St,2136,541110,Offices of Lawyers,54,"Professional, Scientific, and Technical Services",2.0,1 to 9,Hyde Park,POINT (-71.121823 42.256161),,8,5
42.255146,-71.120689,fleetwood sounds,47 Fairmount Ave,2136,0,,99,Undefined,0.0,Not Available,Hyde Park,POINT (-71.120689 42.255146),,8,5
42.256064,-71.12461,first church of god of healing of boston inc,1285 River St,2136,813110,Religious Organizations,81,Other Services,5.0,1 to 9,Hyde Park,POINT (-71.12461 42.256064),,8,5
42.25638,-71.120355,farah s cafe restaurant,1158 River St,2136,722511,Full-Service Restaurants,72,Accommodation and Food Services,8.0,1 to 9,Hyde Park,POINT (-71.120355 42.25638),,8,5
42.256402,-71.122004,fanfan's bakery,15 Harvard Ave,2136,722511,Full-Service Restaurants,72,Accommodation and Food Services,8.0,1 to 9,Hyde Park,POINT (-71.122004 42.256402),,8,5
42.256402,-71.122004,fanfan bakery restaurant,15 Harvard Ave,2136,722511,Full-Service Restaurants,72,Accommodation and Food Services,8.0,1 to 9,Hyde Park,POINT (-71.122004 42.256402),,8,5
42.256402,-71.122004,fan fan,15 Harvard Ave,2136,722511,Full-Service Restaurants,72,Accommodation and Food Services,8.0,1 to 9,Hyde Park,POINT (-71.122004 42.256402),,8,5
42.255132,-71.120791,fairmount ave physical therapy & rehabilitation,49 Fairmount Ave,2136,621111,Offices of Physicians (except Mental Health Specialists),62,Healthcare and Social Assistance,4.0,1 to 9,Hyde Park,POINT (-71.120791 42.255132),,8,5
42.255282,-71.120279,fairmount ave physical therapy,50 Fairmount Ave,2136,621340,"Offices of Physical, Occupational and Speech Therapists, and Audiologists",62,Healthcare and Social Assistance,4.0,1 to 9,Hyde Park,POINT (-71.120279 42.255282),,8,5
42.253041,-71.125096,fairmount ads,1351 Hyde Park Ave,2136,621340,"Offices of Physical, Occupational and Speech Therapists, and Audiologists",62,Healthcare and Social Assistance,9.0,1 to 9,Hyde Park,POINT (-71.125096 42.253041),,8,5
42.257471,-71.123371,every one realty,1214 Hyde Park Ave,2136,531210,Offices of Real Estate Agents and Brokers,53,Real Estate Rental and Leasing,5.0,1 to 9,Hyde Park,POINT (-71.123371 42.257471),,8,5
42.254107,-71.12401,essence of tyme catering & gift shop,1300 Hyde Park Ave,2136,813319,Other Social Advocacy Organizations,81,Other Services,26.0,25 to 49,Hyde Park,POINT (-71.12401 42.254107),,8,5
42.256025,-71.123692,el zazonaso restaurant,1251 River St,2136,722511,Full-Service Restaurants,72,Accommodation and Food Services,8.0,1 to 9,Hyde Park,POINT (-71.123692 42.256025),,8,5
42.256607,-71.12252,eglise de dieu de la prophesie,38 Winthrop St,2136,813110,Religious Organizations,81,Other Services,3.0,1 to 9,Hyde Park,POINT (-71.12252 42.256607),,8,5
42.255451,-71.124485,east dedham disposal,1269 Hyde Park Ave,2136,562119,Other Waste Collection,56,"Adminstrative, Support, Waste Management, and Remediation Services",4.0,1 to 9,Hyde Park,POINT (-71.124485 42.255451),,8,5
42.256345,-71.120373,eagle supplies,1156 River St,2136,452319,All Other General Merchandise Stores,45,Retail Trade,2.0,1 to 9,Hyde Park,POINT (-71.120373 42.256345),,8,5
42.256345,-71.120373,eagle smoke shop,1156 River St,2136,453991,Tobacco Stores,45,Retail Trade,2.0,1 to 9,Hyde Park,POINT (-71.120373 42.256345),,8,5
42.257962,-71.123975,eagle shipping line inc,1205 Hyde Park Ave,2136,561910,Packaging and Labeling Services,56,"Adminstrative, Support, Waste Management, and Remediation Services",6.0,1 to 9,Hyde Park,POINT (-71.123975 42.257962),,8,5
42.257837,-71.123235,dunkin',1200 Hyde Park Ave,2136,722515,Snack and Nonalcoholic Beverage Bars,72,Accommodation and Food Services,27.0,25 to 49,Hyde Park,POINT (-71.123235 42.257837),,8,5
42.255571,-71.124201,"drs bankhead & groipen, dds, pc",1259 Hyde Park Ave,2136,621210,Offices of Dentists,62,Healthcare and Social Assistance,25.0,25 to 49,Hyde Park,POINT (-71.124201 42.255571),,8,5
42.254623,-71.119822,dress with confidence,80 Fairmount Ave,2136,448140,Family Clothing Stores,44,Retail Trade,3.0,1 to 9,Hyde Park,POINT (-71.119822 42.254623),,8,5
42.253797,-71.124667,dream kid spa,15 Dana Ave,2136,713940,Fitness and Recreational Sports Centers,71,"Arts, Entertainment, and Recreation",7.0,1 to 9,Hyde Park,POINT (-71.124667 42.253797),,8,5
42.253707,-71.124329,donohue realty,1310 Hyde Park Ave,2136,531210,Offices of Real Estate Agents and Brokers,53,Real Estate Rental and Leasing,5.0,1 to 9,Hyde Park,POINT (-71.124329 42.253707),,8,5
42.255539,-71.123335,dollar general,1248 River St,2136,452319,All Other General Merchandise Stores,45,Retail Trade,6.0,1 to 9,Hyde Park,POINT (-71.123335 42.255539),,8,5
42.257962,-71.123975,dhenia's salon,1201B Hyde Park Ave,2136,812112,Beauty Salons,81,Other Services,2.0,1 to 9,Hyde Park,POINT (-71.123975 42.257962),,8,5
42.256019,-71.124258,destini healthcare services inc,1259 Hyde Park Ave,2136,621999,All Other Miscellaneous Ambulatory Health Care Services,62,Healthcare and Social Assistance,8.0,1 to 9,Hyde Park,POINT (-71.124258 42.256019),,8,5
42.255547,-71.120382,dalbabebe salon,4 Fairmount Ave,2136,812112,Beauty Salons,81,Other Services,1.0,1 to 9,Hyde Park,POINT (-71.120382 42.255547),,8,5
42.254688,-71.120316,creele corp,73 Fairmount Ave,2136,813319,Other Social Advocacy Organizations,81,Other Services,9.0,1 to 9,Hyde Park,POINT (-71.120316 42.254688),,8,5
42.256069,-71.124769,cp tax advisors,1295 River St,2136,541213,Tax Preparation Services,54,"Professional, Scientific, and Technical Services",1.0,1 to 9,Hyde Park,POINT (-71.124769 42.256069),,8,5
42.255039,-71.120529,convenient store,59 Fairmount Ave,2136,445120,Convenience Stores,44,Retail Trade,2.0,1 to 9,Hyde Park,POINT (-71.120529 42.255039),,8,5
42.255432,-71.120996,cleary square eyecare,7 Fairmount Ave,2136,621320,Offices of Optometrists,62,Healthcare and Social Assistance,4.0,1 to 9,Hyde Park,POINT (-71.120996 42.255432),,8,5
42.256436,-71.120993,city of boston,1179 River St,2136,921120,Legislative Bodies,92,Public Administration,9.0,1 to 9,Hyde Park,POINT (-71.120993 42.256436),,8,5
42.255571,-71.124201,city globe,1259 Hyde Park Ave,2136,531210,Offices of Real Estate Agents and Brokers,53,Real Estate Rental and Leasing,1.0,1 to 9,Hyde Park,POINT (-71.124201 42.255571),,8,5
42.255728,-71.122584,christ church,1220 River St,2136,813110,Religious Organizations,81,Other Services,4.0,1 to 9,Hyde Park,POINT (-71.122584 42.255728),,8,5
42.256805,-71.123543,chadda dental associates,1234 Hyde Park Ave,2136,621210,Offices of Dentists,62,Healthcare and Social Assistance,6.0,1 to 9,Hyde Park,POINT (-71.123543 42.256805),,8,5
42.255982,-71.122493,central paint & true value,1206 River St,2136,444130,Hardware Stores,44,Retail Trade,7.0,1 to 9,Hyde Park,POINT (-71.122493 42.255982),,8,5
42.256433,-71.121487,central automotive,12 Central Ave,2136,811111,General Automotive Repair,81,Other Services,2.0,1 to 9,Hyde Park,POINT (-71.121487 42.256433),,8,5
42.255385,-71.122911,carroll-thomas funeral home,22 Oak St,2136,812210,Funeral Homes and Funeral Services,81,Other Services,3.0,1 to 9,Hyde Park,POINT (-71.122911 42.255385),,8,5
42.255383,-71.12402,burritos pizzeria,1282 Hyde Park Ave,2136,722511,Full-Service Restaurants,72,Accommodation and Food Services,3.0,1 to 9,Hyde Park,POINT (-71.12402 42.255383),,8,5
42.25591,-71.124472,burke insurance,1279 River St,2136,524210,Insurance Agencies and Brokerages,52,Finance and Insurance,3.0,1 to 9,Hyde Park,POINT (-71.124472 42.25591),,8,5
42.25705,-71.119526,britney cab inc,7 Walter St,2136,485310,Taxi Service,48,Transportation and Warehosuing,12.0,10 to 24,Hyde Park,POINT (-71.119526 42.25705),,8,5
42.253315,-71.124951,brigham & women's at hyde park,1337 Hyde Park Ave,2136,621111,Offices of Physicians (except Mental Health Specialists),62,Healthcare and Social Assistance,11.0,10 to 24,Hyde Park,POINT (-71.124951 42.253315),,8,5
42.256481,-71.124271,boston police relief association,1249 Hyde Park Ave,2136,813910,Business Associations,81,Other Services,6.0,1 to 9,Hyde Park,POINT (-71.124271 42.256481),,8,5
42.256302,-71.124025,boston police department,1249 Hyde Park Ave,2136,922120,Police Protection,92,Public Administration,150.0,100+,Hyde Park,POINT (-71.124025 42.256302),,8,5
42.256069,-71.124769,boston health zone,1295 River St,2136,621999,All Other Miscellaneous Ambulatory Health Care Services,62,Healthcare and Social Assistance,7.0,1 to 9,Hyde Park,POINT (-71.124769 42.256069),,8,5
42.255827,-71.122796,boston fusion chef club,1238 River St,2136,813410,Civic and Social Organizations,81,Other Services,5.0,1 to 9,Hyde Park,POINT (-71.122796 42.255827),,8,5
42.255146,-71.120689,boston crusaders drum-bugle,47 Fairmount Ave,2136,611610,Fine Arts Schools,61,Educational Services,1.0,1 to 9,Hyde Park,POINT (-71.120689 42.255146),,8,5
42.25709,-71.122112,boston city,35 Harvard Ave,2136,921120,Legislative Bodies,92,Public Administration,10.0,10 to 24,Hyde Park,POINT (-71.122112 42.25709),,8,5
42.256642,-71.123096,boston blind sailing inc,42 Harvard Ave,2136,813319,Other Social Advocacy Organizations,81,Other Services,9.0,1 to 9,Hyde Park,POINT (-71.123096 42.256642),,8,5
42.254645,-71.119833,boston acupuncture project inc,74 Fairmount Ave,2136,621399,Offices of All Other Miscellaneous Health Practitioners,62,Healthcare and Social Assistance,2.0,1 to 9,Hyde Park,POINT (-71.119833 42.254645),,8,5
42.255512,-71.12376,boost mobile by pwc wireless,1260 Hyde Park Ave,2136,517312,Wireless Telecommunications Carriers (except Satellite),51,Information,2.0,1 to 9,Hyde Park,POINT (-71.12376 42.255512),,8,5
42.255512,-71.12376,boost mobile,1260 Hyde Park Ave,2136,517312,Wireless Telecommunications Carriers (except Satellite),51,Information,0.0,Not Available,Hyde Park,POINT (-71.12376 42.255512),,8,5
42.254427,-71.120245,books 2 liberate co,83 Fairmount Ave,2136,813319,Other Social Advocacy Organizations,81,Other Services,9.0,1 to 9,Hyde Park,POINT (-71.120245 42.254427),,8,5
42.256159,-71.123181,blue river food shop,1239 River St,2136,445110,Supermarkets and Other Grocery (except Convenience) Stores,44,Retail Trade,2.0,1 to 9,Hyde Park,POINT (-71.123181 42.256159),,8,5
42.256159,-71.123181,blue river food mart,1239 River St,2136,445120,Convenience Stores,44,Retail Trade,2.0,1 to 9,Hyde Park,POINT (-71.123181 42.256159),,8,5
42.256039,-71.124268,big partners inc,1261 Hyde Park Ave,2136,0,,99,Undefined,0.0,Not Available,Hyde Park,POINT (-71.124268 42.256039),,8,5
42.256104,-71.120395,bidway-usa inc,1166 River St,2136,813319,Other Social Advocacy Organizations,81,Other Services,9.0,1 to 9,Hyde Park,POINT (-71.120395 42.256104),,8,5
42.255254,-71.120923,betheda hatian baptist church,35 Fairmount Ave,2136,813110,Religious Organizations,81,Other Services,3.0,1 to 9,Hyde Park,POINT (-71.120923 42.255254),,8,5
42.254719,-71.12027,beeyoutiful hair,77 Fairmount Ave,2136,812112,Beauty Salons,81,Other Services,3.0,1 to 9,Hyde Park,POINT (-71.12027 42.254719),,8,5
42.256805,-71.123543,baystate reference laboratories,1234 Hyde Park Ave,2136,621511,Medical Laboratories,62,Healthcare and Social Assistance,9.0,1 to 9,Hyde Park,POINT (-71.123543 42.256805),,8,5
42.256229,-71.122534,bank of america,1219 River St,2136,522110,Commercial Banking,52,Finance and Insurance,11.0,10 to 24,Hyde Park,POINT (-71.122534 42.256229),,8,5
42.25562,-71.121642,b h security corp,1196 River St,2136,423610,"Electrical Apparatus and Equipment, Wiring Supplies, and Related Equipment Merchant Wholesalers",42,Wholesale Trade,8.0,1 to 9,Hyde Park,POINT (-71.121642 42.25562),,8,5
42.257547,-71.12408,autozone,1211 Hyde Park Ave,2136,441310,Automotive Parts and Accessories Stores,44,Retail Trade,5.0,1 to 9,Hyde Park,POINT (-71.12408 42.257547),,8,5
42.256946,-71.124363,automotive specialties,12 Providence St,2136,811121,"Automotive Body, Paint, and Interior Repair and Maintenance",81,Other Services,15.0,10 to 24,Hyde Park,POINT (-71.124363 42.256946),,8,5
42.256946,-71.124363,asi collision,12 Providence St,2136,811121,"Automotive Body, Paint, and Interior Repair and Maintenance",81,Other Services,0.0,Not Available,Hyde Park,POINT (-71.124363 42.256946),,8,5
42.255132,-71.120791,arvia physical therapy,41 Fairmount Ave,2136,621340,"Offices of Physical, Occupational and Speech Therapists, and Audiologists",62,Healthcare and Social Assistance,0.0,Not Available,Hyde Park,POINT (-71.120791 42.255132),,8,5
42.256064,-71.12461,arise n shine boutique,1285 River St,2136,448120,Women's Clothing Stores,44,Retail Trade,2.0,1 to 9,Hyde Park,POINT (-71.12461 42.256064),,8,5
42.256019,-71.124258,arch orthodontics,1259 Hyde Park Ave,2136,621210,Offices of Dentists,62,Healthcare and Social Assistance,6.0,1 to 9,Hyde Park,POINT (-71.124258 42.256019),,8,5
42.256553,-71.120131,arbit chiropractic,1148 River St,2136,621310,Offices of Chiropractors,62,Healthcare and Social Assistance,2.0,1 to 9,Hyde Park,POINT (-71.120131 42.256553),,8,5
42.256104,-71.120395,appe inc,1166 River St,2136,813319,Other Social Advocacy Organizations,81,Other Services,9.0,1 to 9,Hyde Park,POINT (-71.120395 42.256104),,8,5
42.25618,-71.122981,aog always on the grind,1235 River St,2136,812111,Barber Shops,81,Other Services,2.0,1 to 9,Hyde Park,POINT (-71.122981 42.25618),,8,5
42.255448,-71.121014,antonio bacaro restaurant,5 Fairmount Ave,2136,722511,Full-Service Restaurants,72,Accommodation and Food Services,8.0,1 to 9,Hyde Park,POINT (-71.121014 42.255448),,8,5
42.255692,-71.120789,andrea mini market,2 Fairmount Ave,2136,445110,Supermarkets and Other Grocery (except Convenience) Stores,44,Retail Trade,2.0,1 to 9,Hyde Park,POINT (-71.120789 42.255692),,8,5
42.256069,-71.124769,american driving institute,1295 River St,2136,611692,Automobile Driving Schools,61,Educational Services,4.0,1 to 9,Hyde Park,POINT (-71.124769 42.256069),,8,5
42.256064,-71.12461,alpha omega,1285 River St,2136,452319,All Other General Merchandise Stores,45,Retail Trade,2.0,1 to 9,Hyde Park,POINT (-71.12461 42.256064),,8,5
42.258831,-71.12377,akiki oil,1171 Hyde Park Ave,2136,447190,Other Gasoline Stations,44,Retail Trade,2.0,1 to 9,Hyde Park,POINT (-71.12377 42.258831),,8,5
42.256607,-71.12252,african immigration legal service,38 Winthrop St,2136,541110,Offices of Lawyers,54,"Professional, Scientific, and Technical Services",2.0,1 to 9,Hyde Park,POINT (-71.12252 42.256607),,8,5
42.257091,-71.123461,advanced property management,1226 Hyde Park Ave,2136,531210,Offices of Real Estate Agents and Brokers,53,Real Estate Rental and Leasing,6.0,1 to 9,Hyde Park,POINT (-71.123461 42.257091),,8,5
42.257091,-71.123461,advanced property,1226 Hyde Park Ave,2136,531210,Offices of Real Estate Agents and Brokers,53,Real Estate Rental and Leasing,5.0,1 to 9,Hyde Park,POINT (-71.123461 42.257091),,8,5
42.256196,-71.122803,adonai boutique,1227 River St,2136,448120,Women's Clothing Stores,44,Retail Trade,2.0,1 to 9,Hyde Park,POINT (-71.122803 42.256196),,8,5
42.256064,-71.12461,adaptab management consulting llc,1285 River St,2136,541618,Other Management Consulting Services,54,"Professional, Scientific, and Technical Services",7.0,1 to 9,Hyde Park,POINT (-71.12461 42.256064),,8,5
42.257603,-71.123431,acm tax srvs,1210 Hyde Park Ave,2136,541213,Tax Preparation Services,54,"Professional, Scientific, and Technical Services",2.0,1 to 9,Hyde Park,POINT (-71.123431 42.257603),,8,5
42.256962,-71.119856,ace dental boston,1138 River St,2136,621210,Offices of Dentists,62,Healthcare and Social Assistance,6.0,1 to 9,Hyde Park,POINT (-71.119856 42.256962),,8,5
42.256069,-71.124769,a-l & l driving academy,1295 River St,2136,611692,Automobile Driving Schools,61,Educational Services,3.0,1 to 9,Hyde Park,POINT (-71.124769 42.256069),,8,5
42.256069,-71.124769,54th mass volunteers infantry co,1295 River St,2136,813410,Civic and Social Organizations,81,Other Services,2.0,1 to 9,Hyde Park,POINT (-71.124769 42.256069),,8,5
42.285706,-71.129181,yurritada inc,4249 Washington St,2131,0,,99,Undefined,0.0,Not Available,Roslindale Village,POINT (-71.129181 42.285706),,8,5
42.286979,-71.129397,yangs martial arts association boston,756 South St,2131,611620,Sports and Recreation Instruction,61,Educational Services,2.0,1 to 9,Roslindale Village,POINT (-71.129397 42.286979),,8,5
42.286144,-71.127991,workhub at the substation,4228 Washington St,2131,531110,Lessors of Residential Buildings and Dwellings,53,Real Estate Rental and Leasing,3.0,1 to 9,Roslindale Village,POINT (-71.127991 42.286144),,8,5
42.2866,-71.128978,wonder nails,13 Poplar St,2131,812113,Nail Salons,81,Other Services,2.0,1 to 9,Roslindale Village,POINT (-71.128978 42.2866),,8,5
42.286213,-71.130106,wine & liquors inc,23 Corinth St,2131,445310,"Beer, Wine, and Liquor Stores",44,Retail Trade,4.0,1 to 9,Roslindale Village,POINT (-71.130106 42.286213),,8,5
42.285727,-71.128674,west roxbury library department,4246 Washington St,2131,519120,Libraries and Archives,51,Information,6.0,1 to 9,Roslindale Village,POINT (-71.128674 42.285727),,8,5
42.287052,-71.127108,welcome buddy convenience,4196 Washington St,2131,445120,Convenience Stores,44,Retail Trade,2.0,1 to 9,Roslindale Village,POINT (-71.127108 42.287052),,8,5
42.286346,-71.129049,we got us inc,29 Poplar St,2131,813319,Other Social Advocacy Organizations,81,Other Services,9.0,1 to 9,Roslindale Village,POINT (-71.129049 42.286346),,8,5
42.28693,-71.12881,wallpaper city inc,732 South St,2131,444120,Paint and Wallpaper Stores,44,Retail Trade,4.0,1 to 9,Roslindale Village,POINT (-71.12881 42.28693),,8,5
42.286558,-71.130017,village sushi & grill,14 Corinth St,2131,722511,Full-Service Restaurants,72,Accommodation and Food Services,3.0,1 to 9,Roslindale Village,POINT (-71.130017 42.286558),,8,5
42.285649,-71.127509,village preschool,25 Cummins Hwy,2131,624410,Child Day Care Services,62,Healthcare and Social Assistance,24.0,10 to 24,Roslindale Village,POINT (-71.127509 42.285649),,8,5
42.285649,-71.127509,village pre school inc,25 Cummins Hwy,2131,0,,99,Undefined,4.0,1 to 9,Roslindale Village,POINT (-71.127509 42.285649),,8,5
42.286525,-71.129092,veronica akins,17 Poplar St,2131,0,,99,Undefined,0.0,Not Available,Roslindale Village,POINT (-71.129092 42.286525),,8,5
42.286183,-71.129038,vera's professional service,11 Poplar St,2131,511199,All Other Publishers,51,Information,2.0,1 to 9,Roslindale Village,POINT (-71.129038 42.286183),,8,5
42.285416,-71.128998,v & d variety store,4254 Washington St,2131,452319,All Other General Merchandise Stores,45,Retail Trade,2.0,1 to 9,Roslindale Village,POINT (-71.128998 42.285416),,8,5
42.286558,-71.130017,tremont credit union,10 Corinth St,2131,522130,Credit Unions,52,Finance and Insurance,7.0,1 to 9,Roslindale Village,POINT (-71.130017 42.286558),,8,5
42.286042,-71.129286,travel by judie leon,42 Corinth St,2131,561510,Travel Agencies,56,"Adminstrative, Support, Waste Management, and Remediation Services",3.0,1 to 9,Roslindale Village,POINT (-71.129286 42.286042),,8,5
42.287116,-71.128789,tobin & tobin pc iwyrs,735 South St,2131,541110,Offices of Lawyers,54,"Professional, Scientific, and Technical Services",4.0,1 to 9,Roslindale Village,POINT (-71.128789 42.287116),,8,5
42.28594,-71.129591,thrift shop of boston inc,33 Corinth St,2131,453310,Used Merchandise Stores,45,Retail Trade,3.0,1 to 9,Roslindale Village,POINT (-71.129591 42.28594),,8,5
42.287029,-71.129629,threads,4 Birch St,2131,448190,Other Clothing Stores,44,Retail Trade,2.0,1 to 9,Roslindale Village,POINT (-71.129629 42.287029),,8,5
42.286744,-71.130442,threading for beauty,8 Corinth St,2131,812112,Beauty Salons,81,Other Services,5.0,1 to 9,Roslindale Village,POINT (-71.130442 42.286744),,8,5
42.286264,-71.129525,the village market,30 Corinth St,2131,445110,Supermarkets and Other Grocery (except Convenience) Stores,44,Retail Trade,40.0,25 to 49,Roslindale Village,POINT (-71.129525 42.286264),,8,5
42.285801,-71.128313,the leggett group,4238 Washington St,2131,621330,Offices of Mental Health Practitioners (except Physicians),62,Healthcare and Social Assistance,5.0,1 to 9,Roslindale Village,POINT (-71.128313 42.285801),,8,5
42.286346,-71.129049,symphony barbers,29 Poplar St,2131,812111,Barber Shops,81,Other Services,2.0,1 to 9,Roslindale Village,POINT (-71.129049 42.286346),,8,5
42.285801,-71.128313,subway,4238 Washington St,2131,722511,Full-Service Restaurants,72,Accommodation and Food Services,8.0,1 to 9,Roslindale Village,POINT (-71.128313 42.285801),,8,5
42.285213,-71.128973,studio luz architects,67 Poplar St,2131,541310,Architectural Services,54,"Professional, Scientific, and Technical Services",6.0,1 to 9,Roslindale Village,POINT (-71.128973 42.285213),,8,5
42.285213,-71.128973,studio luz,67 Poplar St,2131,541310,Architectural Services,54,"Professional, Scientific, and Technical Services",6.0,1 to 9,Roslindale Village,POINT (-71.128973 42.285213),,8,5
42.286726,-71.1299,sophias grotto,22R Birch St,2131,722511,Full-Service Restaurants,72,Accommodation and Food Services,8.0,1 to 9,Roslindale Village,POINT (-71.1299 42.286726),,8,5
42.286665,-71.130047,solera,16 Birch St,2131,445310,"Beer, Wine, and Liquor Stores",44,Retail Trade,1.0,1 to 9,Roslindale Village,POINT (-71.130047 42.286665),,8,5
42.285801,-71.128313,social security administration,4238 Washington St,2131,923130,"Administration of Human Resource Programs (except Education, Public Health, and Veterans' Affairs Programs)",92,Public Administration,3.0,1 to 9,Roslindale Village,POINT (-71.128313 42.285801),,8,5
42.287224,-71.129182,shona stylez hair studio,755 South St,2131,812112,Beauty Salons,81,Other Services,3.0,1 to 9,Roslindale Village,POINT (-71.129182 42.287224),,8,5
42.287215,-71.12766,shanti taste of india,4197 Washington St,2131,722511,Full-Service Restaurants,72,Accommodation and Food Services,8.0,1 to 9,Roslindale Village,POINT (-71.12766 42.287215),,8,5
42.287215,-71.12766,shanti boston,4197 Washington St,2131,722511,Full-Service Restaurants,72,Accommodation and Food Services,8.0,1 to 9,Roslindale Village,POINT (-71.12766 42.287215),,8,5
42.286481,-71.128988,shaking seafood,19 Poplar St,2131,445220,Fish and Seafood Markets,44,Retail Trade,4.0,1 to 9,Roslindale Village,POINT (-71.128988 42.286481),,8,5
42.286481,-71.128988,serebre dollar store,19 Poplar St,2131,452210,Department Stores,45,Retail Trade,3.0,1 to 9,Roslindale Village,POINT (-71.128988 42.286481),,8,5
42.287052,-71.127108,seraphic springs health care,4196 Washington St,2131,621999,All Other Miscellaneous Ambulatory Health Care Services,62,Healthcare and Social Assistance,10.0,10 to 24,Roslindale Village,POINT (-71.127108 42.287052),,8,5
42.286744,-71.130442,sebastian's barber shop,6 Corinth St,2131,812111,Barber Shops,81,Other Services,2.0,1 to 9,Roslindale Village,POINT (-71.130442 42.286744),,8,5
42.285801,-71.128313,schalet randi,4238 Washington St,2131,624110,Child and Youth Services,62,Healthcare and Social Assistance,6.0,1 to 9,Roslindale Village,POINT (-71.128313 42.285801),,8,5
42.286346,-71.129049,sbs salons,25 Poplar St,2131,812112,Beauty Salons,81,Other Services,3.0,1 to 9,Roslindale Village,POINT (-71.129049 42.286346),,8,5
42.287116,-71.128789,salon on south,737 South St,2131,812112,Beauty Salons,81,Other Services,2.0,1 to 9,Roslindale Village,POINT (-71.128789 42.287116),,8,5
42.285801,-71.128313,salmagundi inc,4238 Washington St,2131,448150,Clothing Accessories Stores,44,Retail Trade,2.0,1 to 9,Roslindale Village,POINT (-71.128313 42.285801),,8,5
42.286213,-71.130106,russo associates inc,23 Corinth St,2131,445310,"Beer, Wine, and Liquor Stores",44,Retail Trade,4.0,1 to 9,Roslindale Village,POINT (-71.130106 42.286213),,8,5
42.285739,-71.129275,roxy nails & spa,45 Corinth St,2131,812113,Nail Salons,81,Other Services,3.0,1 to 9,Roslindale Village,POINT (-71.129275 42.285739),,8,5
42.285286,-71.12912,roxbury youthworks inc,4262 Washington St,2131,813319,Other Social Advocacy Organizations,81,Other Services,8.0,1 to 9,Roslindale Village,POINT (-71.12912 42.285286),,8,5
42.285213,-71.128973,roslindale village main street,67 Poplar St,2131,0,,99,Undefined,0.0,Not Available,Roslindale Village,POINT (-71.128973 42.285213),,8,5
42.285801,-71.128313,roslindale village dental,4238 Washington St,2131,621210,Offices of Dentists,62,Healthcare and Social Assistance,4.0,1 to 9,Roslindale Village,POINT (-71.128313 42.285801),,8,5
42.285649,-71.127509,roslindale congregational church,25 Cummins Hwy,2131,813110,Religious Organizations,81,Other Services,4.0,1 to 9,Roslindale Village,POINT (-71.127509 42.285649),,8,5
42.286184,-71.130061,ronald h krupa insurance agency,25 Corinth St,2131,524210,Insurance Agencies and Brokerages,52,Finance and Insurance,2.0,1 to 9,Roslindale Village,POINT (-71.130061 42.286184),,8,5
42.285706,-71.129181,romano's pizza,4249 Washington St,2131,722511,Full-Service Restaurants,72,Accommodation and Food Services,7.0,1 to 9,Roslindale Village,POINT (-71.129181 42.285706),,8,5
42.286936,-71.13022,richard c alvord architect,9 Birch St,2131,541310,Architectural Services,54,"Professional, Scientific, and Technical Services",8.0,1 to 9,Roslindale Village,POINT (-71.13022 42.286936),,8,5
42.287037,-71.128212,rialto barber shop,713 South St,2131,812111,Barber Shops,81,Other Services,3.0,1 to 9,Roslindale Village,POINT (-71.128212 42.287037),,8,5
42.286744,-71.130442,rachel stanton,20 Belgrade Ave,2131,0,,99,Undefined,0.0,Not Available,Roslindale Village,POINT (-71.130442 42.286744),,8,5
42.286334,-71.130321,quality meat market,13 Corinth St,2131,445110,Supermarkets and Other Grocery (except Convenience) Stores,44,Retail Trade,1.0,1 to 9,Roslindale Village,POINT (-71.130321 42.286334),,8,5
42.285211,-71.129014,progressive insurance,4258 Washington St,2131,524210,Insurance Agencies and Brokerages,52,Finance and Insurance,3.0,1 to 9,Roslindale Village,POINT (-71.129014 42.285211),,8,5
42.286525,-71.129092,priority homecare service,17 Poplar St,2131,621610,Home Health Care Services,62,Healthcare and Social Assistance,10.0,10 to 24,Roslindale Village,POINT (-71.129092 42.286525),,8,5
42.286334,-71.130321,premier chiropractic,17 Corinth St,2131,621310,Offices of Chiropractors,62,Healthcare and Social Assistance,3.0,1 to 9,Roslindale Village,POINT (-71.130321 42.286334),,8,5
42.287224,-71.129182,"pofcher, disciullo & petruzziello",749 South St,2131,541110,Offices of Lawyers,54,"Professional, Scientific, and Technical Services",5.0,1 to 9,Roslindale Village,POINT (-71.129182 42.287224),,8,5
42.286851,-71.130246,platt anderson freeman,4 Belgrade Ave,2131,541310,Architectural Services,54,"Professional, Scientific, and Technical Services",5.0,1 to 9,Roslindale Village,POINT (-71.130246 42.286851),,8,5
42.285801,-71.128313,phoenix collective,4238 Washington St,2131,0,,99,Undefined,0.0,Not Available,Roslindale Village,POINT (-71.128313 42.285801),,8,5
42.286029,-71.12817,peregrine group llc,4236 Washington St,2131,531210,Offices of Real Estate Agents and Brokers,53,Real Estate Rental and Leasing,6.0,1 to 9,Roslindale Village,POINT (-71.12817 42.286029),,8,5
42.287224,-71.129182,pdp law,749 South St,2131,541110,Offices of Lawyers,54,"Professional, Scientific, and Technical Services",4.0,1 to 9,Roslindale Village,POINT (-71.129182 42.287224),,8,5
42.285211,-71.129014,paul lymneos insurance agency,4258 Washington St,2131,524210,Insurance Agencies and Brokerages,52,Finance and Insurance,4.0,1 to 9,Roslindale Village,POINT (-71.129014 42.285211),,8,5
42.287012,-71.128329,patch realty group,717 South St,2131,531210,Offices of Real Estate Agents and Brokers,53,Real Estate Rental and Leasing,5.0,1 to 9,Roslindale Village,POINT (-71.128329 42.287012),,8,5
42.285309,-71.129036,p s gourmet coffee,4252 Washington St,2131,722515,Snack and Nonalcoholic Beverage Bars,72,Accommodation and Food Services,5.0,1 to 9,Roslindale Village,POINT (-71.129036 42.285309),,8,5
42.287116,-71.128789,orissa nails lounge,737 South St,2131,812113,Nail Salons,81,Other Services,3.0,1 to 9,Roslindale Village,POINT (-71.128789 42.287116),,8,5
42.286744,-71.130442,organization of support to the devmnt of the plateau central,20 Belgrade Ave,2131,813410,Civic and Social Organizations,81,Other Services,6.0,1 to 9,Roslindale Village,POINT (-71.130442 42.286744),,8,5
42.287052,-71.127108,olde bostonian realty,4196 Washington St,2131,531210,Offices of Real Estate Agents and Brokers,53,Real Estate Rental and Leasing,5.0,1 to 9,Roslindale Village,POINT (-71.127108 42.287052),,8,5
42.286042,-71.129286,new imperial kitchen,50 Corinth St,2131,722511,Full-Service Restaurants,72,Accommodation and Food Services,7.0,1 to 9,Roslindale Village,POINT (-71.129286 42.286042),,8,5
42.287176,-71.128041,new england college of optometry ctr for eye care roslindale,4199 Washington St,2131,611310,"Colleges, Universities, and Professional Schools",61,Educational Services,30.0,25 to 49,Roslindale Village,POINT (-71.128041 42.287176),,8,5
42.287176,-71.128041,neco center for eye care,4199 Washington St,2131,621111,Offices of Physicians (except Mental Health Specialists),62,Healthcare and Social Assistance,6.0,1 to 9,Roslindale Village,POINT (-71.128041 42.287176),,8,5
42.285801,-71.128313,n e kelly & associates llc,4238 Washington St,2131,541219,Other Accounting Services,54,"Professional, Scientific, and Technical Services",5.0,1 to 9,Roslindale Village,POINT (-71.128313 42.285801),,8,5
42.286744,-71.130442,musiconnects inc,20 Belgrade Ave,2131,813319,Other Social Advocacy Organizations,81,Other Services,9.0,1 to 9,Roslindale Village,POINT (-71.130442 42.286744),,8,5
42.286865,-71.127335,"muccio, brian",4200 Washington St,2131,0,,99,Undefined,12.0,10 to 24,Roslindale Village,POINT (-71.127335 42.286865),,8,5
42.286587,-71.130112,mike loc s & braids,12 Corinth St,2131,812112,Beauty Salons,81,Other Services,1.0,1 to 9,Roslindale Village,POINT (-71.130112 42.286587),,8,5
42.285801,-71.128313,long knight pc,4238 Washington St,2131,541110,Offices of Lawyers,54,"Professional, Scientific, and Technical Services",4.0,1 to 9,Roslindale Village,POINT (-71.128313 42.285801),,8,5
42.285801,-71.128313,long hagan & huff-harris,4238 Washington St,2131,541110,Offices of Lawyers,54,"Professional, Scientific, and Technical Services",4.0,1 to 9,Roslindale Village,POINT (-71.128313 42.285801),,8,5
42.285801,-71.128313,lindsey & associates realty inc,4238 Washington St,2131,531210,Offices of Real Estate Agents and Brokers,53,Real Estate Rental and Leasing,5.0,1 to 9,Roslindale Village,POINT (-71.128313 42.285801),,8,5
42.286744,-71.130442,leise jones photography,20 Belgrade Ave,2131,541921,"Photography Studios, Portrait",54,"Professional, Scientific, and Technical Services",1.0,1 to 9,Roslindale Village,POINT (-71.130442 42.286744),,8,5
42.285801,-71.128313,law office 319,4238 Washington St,2131,541110,Offices of Lawyers,54,"Professional, Scientific, and Technical Services",4.0,1 to 9,Roslindale Village,POINT (-71.128313 42.285801),,8,5
42.287183,-71.128907,lady d creative,739 South St,2131,453998,All Other Miscellaneous Store Retailers (except Tobacco Stores),45,Retail Trade,1.0,1 to 9,Roslindale Village,POINT (-71.128907 42.287183),,8,5
42.286639,-71.129027,lachapelle barbershop,9 Poplar St,2131,812111,Barber Shops,81,Other Services,2.0,1 to 9,Roslindale Village,POINT (-71.129027 42.286639),,8,5
42.285915,-71.129629,kutting korner,43 Corinth St,2131,812112,Beauty Salons,81,Other Services,3.0,1 to 9,Roslindale Village,POINT (-71.129629 42.285915),,8,5
42.285801,-71.128313,kauffman crozier llp,4238 Washington St,2131,541110,Offices of Lawyers,54,"Professional, Scientific, and Technical Services",4.0,1 to 9,Roslindale Village,POINT (-71.128313 42.285801),,8,5
42.286018,-71.129189,jp dry cleaners,46 Corinth St,2131,448190,Other Clothing Stores,44,Retail Trade,6.0,1 to 9,Roslindale Village,POINT (-71.129189 42.286018),,8,5
42.286851,-71.130246,john kramer design,4 Belgrade Ave,2131,541430,Graphic Design Services,54,"Professional, Scientific, and Technical Services",1.0,1 to 9,Roslindale Village,POINT (-71.130246 42.286851),,8,5
42.287029,-71.129629,joanne rossman design,6 Birch St,2131,448150,Clothing Accessories Stores,44,Retail Trade,1.0,1 to 9,Roslindale Village,POINT (-71.129629 42.287029),,8,5
42.285988,-71.129166,jimmies cafe,,2131,722511,Full-Service Restaurants,72,Accommodation and Food Services,0.0,Not Available,Roslindale Village,POINT (-71.129166 42.285988),,8,5
42.287224,-71.129182,jean's ultimate performance,755 South St,2131,812112,Beauty Salons,81,Other Services,4.0,1 to 9,Roslindale Village,POINT (-71.129182 42.287224),,8,5
42.286726,-71.1299,investa realty llc,22 Birch St,2131,531210,Offices of Real Estate Agents and Brokers,53,Real Estate Rental and Leasing,6.0,1 to 9,Roslindale Village,POINT (-71.1299 42.286726),,8,5
42.285926,-71.129109,hellenic soccer club,47 Poplar St,2131,711211,Sports Teams and Clubs,71,"Arts, Entertainment, and Recreation",3.0,1 to 9,Roslindale Village,POINT (-71.129109 42.285926),,8,5
42.285286,-71.12912,harrison refrigeration & appliance,4262 Washington St,2131,811412,Appliance Repair and Maintenance,81,Other Services,4.0,1 to 9,Roslindale Village,POINT (-71.12912 42.285286),,8,5
42.285232,-71.128979,harrison appliance,63 Poplar St,2131,811412,Appliance Repair and Maintenance,81,Other Services,0.0,Not Available,Roslindale Village,POINT (-71.128979 42.285232),,8,5
42.286568,-71.127643,greater roslindale medical center,6 Cummins Hwy,2131,622110,General Medical and Surgical Hospitals,62,Healthcare and Social Assistance,0.0,Not Available,Roslindale Village,POINT (-71.127643 42.286568),,8,5
42.286851,-71.130246,futura productions inc,4 Belgrade Ave,2131,512110,Motion Picture and Video Production,51,Information,3.0,1 to 9,Roslindale Village,POINT (-71.130246 42.286851),,8,5
42.286076,-71.130139,fornax bread co inc,27 Corinth St,2131,311811,Retail Bakeries,31,Manufacturing,6.0,1 to 9,Roslindale Village,POINT (-71.130139 42.286076),,8,5
42.285988,-71.129166,first realty associates,48 Corinth St,2131,531210,Offices of Real Estate Agents and Brokers,53,Real Estate Rental and Leasing,5.0,1 to 9,Roslindale Village,POINT (-71.129166 42.285988),,8,5
42.286461,-71.129727,family dollar store,24 Corinth St,2131,452319,All Other General Merchandise Stores,45,Retail Trade,9.0,1 to 9,Roslindale Village,POINT (-71.129727 42.286461),,8,5
42.287215,-71.12766,erica's beauty salon,4197 Washington St,2131,812112,Beauty Salons,81,Other Services,5.0,1 to 9,Roslindale Village,POINT (-71.12766 42.287215),,8,5
42.286742,-71.129956,emerald society of boston bpd,10 Birch St,2131,813910,Business Associations,81,Other Services,1.0,1 to 9,Roslindale Village,POINT (-71.129956 42.286742),,8,5
42.286831,-71.127336,east coast improv llc,5 Basile St,2131,0,,99,Undefined,7.0,1 to 9,Roslindale Village,POINT (-71.127336 42.286831),,8,5
42.285801,-71.128313,east boston savings bank,4238 Washington St,2131,522110,Commercial Banking,52,Finance and Insurance,10.0,10 to 24,Roslindale Village,POINT (-71.128313 42.285801),,8,5
42.286831,-71.127336,droubi bakery,4198 Washington St,2131,311811,Retail Bakeries,31,Manufacturing,3.0,1 to 9,Roslindale Village,POINT (-71.127336 42.286831),,8,5
42.286831,-71.127336,dragon chef east,4198 Washington St,2131,722511,Full-Service Restaurants,72,Accommodation and Food Services,5.0,1 to 9,Roslindale Village,POINT (-71.127336 42.286831),,8,5
42.286851,-71.130246,distraction brewing co,2 Belgrade Ave,2131,312120,Breweries,31,Manufacturing,155.0,100+,Roslindale Village,POINT (-71.130246 42.286851),,8,5
42.286831,-71.127336,delicious yogurt,4206 Washington St,2131,445299,All Other Specialty Food Stores,44,Retail Trade,4.0,1 to 9,Roslindale Village,POINT (-71.127336 42.286831),,8,5
42.286966,-71.129524,delfino,754 South St,2131,722511,Full-Service Restaurants,72,Accommodation and Food Services,6.0,1 to 9,Roslindale Village,POINT (-71.129524 42.286966),,8,5
42.286481,-71.128988,dao ao inc,19 Poplar St,2131,0,,99,Undefined,0.0,Not Available,Roslindale Village,POINT (-71.128988 42.286481),,8,5
42.286183,-71.129038,cricket wireless authorized retailer,15 Poplar St,2131,517312,Wireless Telecommunications Carriers (except Satellite),51,Information,4.0,1 to 9,Roslindale Village,POINT (-71.129038 42.286183),,8,5
42.286334,-71.130321,create art in community,11 Corinth St,2131,711110,Theater Companies and Dinner Theaters,71,"Arts, Entertainment, and Recreation",3.0,1 to 9,Roslindale Village,POINT (-71.130321 42.286334),,8,5
42.285211,-71.129014,cosgrove & mcmenimon insurance agency,4258 Washington St,2131,524210,Insurance Agencies and Brokerages,52,Finance and Insurance,2.0,1 to 9,Roslindale Village,POINT (-71.129014 42.285211),,8,5
42.286966,-71.129524,columbus managing corp,754 South St,2131,722511,Full-Service Restaurants,72,Accommodation and Food Services,8.0,1 to 9,Roslindale Village,POINT (-71.129524 42.286966),,8,5
42.28743,-71.129583,citizens bank,777 South St,2131,522110,Commercial Banking,52,Finance and Insurance,6.0,1 to 9,Roslindale Village,POINT (-71.129583 42.28743),,8,5
42.287836,-71.131282,charles river church,814 South St,2131,813110,Religious Organizations,81,Other Services,3.0,1 to 9,Roslindale Village,POINT (-71.131282 42.287836),,8,5
42.286943,-71.130117,centre cuts,6 Belgrade Ave,2131,812112,Beauty Salons,81,Other Services,15.0,10 to 24,Roslindale Village,POINT (-71.130117 42.286943),,8,5
42.287215,-71.12766,carmen travel & tours corp,4197B Washington St,2131,561510,Travel Agencies,56,"Adminstrative, Support, Waste Management, and Remediation Services",1.0,1 to 9,Roslindale Village,POINT (-71.12766 42.287215),,8,5
42.286037,-71.129028,carenet physical therapy,41 Poplar St,2131,621493,Freestanding Ambulatory Surgical and Emergency Centers,62,Healthcare and Social Assistance,15.0,10 to 24,Roslindale Village,POINT (-71.129028 42.286037),,8,5
42.286461,-71.129727,calvin chin's martial arts,24 Corinth St,2131,611620,Sports and Recreation Instruction,61,Educational Services,2.0,1 to 9,Roslindale Village,POINT (-71.129727 42.286461),,8,5
42.286744,-71.130442,boston wellness center,20 Belgrade Ave,2131,621999,All Other Miscellaneous Ambulatory Health Care Services,62,Healthcare and Social Assistance,0.0,Not Available,Roslindale Village,POINT (-71.130442 42.286744),,8,5
42.286728,-71.130013,boston rubber roof,20 Birch St,2131,238160,Roofing Contractors,23,Construction,1.0,1 to 9,Roslindale Village,POINT (-71.130013 42.286728),,8,5
42.285801,-71.128313,boston real estate co,4238 Washington St,2131,531210,Offices of Real Estate Agents and Brokers,53,Real Estate Rental and Leasing,5.0,1 to 9,Roslindale Village,POINT (-71.128313 42.285801),,8,5
42.286558,-71.130017,boston mobile,18 Corinth St,2131,517312,Wireless Telecommunications Carriers (except Satellite),51,Information,2.0,1 to 9,Roslindale Village,POINT (-71.130017 42.286558),,8,5
42.28664,-71.130078,boston cheese cellar llc,18 Birch St,2131,445299,All Other Specialty Food Stores,44,Retail Trade,4.0,1 to 9,Roslindale Village,POINT (-71.130078 42.28664),,8,5
42.286042,-71.129286,bonillas wireless & multiservice,44 Corinth St,2131,517312,Wireless Telecommunications Carriers (except Satellite),51,Information,2.0,1 to 9,Roslindale Village,POINT (-71.129286 42.286042),,8,5
42.286042,-71.129286,bonilla's wireless-mltsrvcs,44 Corinth St,2131,517312,Wireless Telecommunications Carriers (except Satellite),51,Information,2.0,1 to 9,Roslindale Village,POINT (-71.129286 42.286042),,8,5
42.286831,-71.127336,body movement solutions,5 Basile St,2131,713940,Fitness and Recreational Sports Centers,71,"Arts, Entertainment, and Recreation",1.0,1 to 9,Roslindale Village,POINT (-71.127336 42.286831),,8,5
42.286334,-71.130321,blue star restaurant,11 Corinth St,2131,722511,Full-Service Restaurants,72,Accommodation and Food Services,8.0,1 to 9,Roslindale Village,POINT (-71.130321 42.286334),,8,5
42.286989,-71.12942,birch street house & garden,760 South St,2131,453220,"Gift, Novelty, and Souvenir Stores",45,Retail Trade,3.0,1 to 9,Roslindale Village,POINT (-71.12942 42.286989),,8,5
42.287012,-71.128329,birch flower shop,719 South St,2131,453110,Florists,45,Retail Trade,1.0,1 to 9,Roslindale Village,POINT (-71.128329 42.287012),,8,5
42.286831,-71.127336,"ben warner, inc",5 Basile St,2131,0,,99,Undefined,12.0,10 to 24,Roslindale Village,POINT (-71.127336 42.286831),,8,5
42.285211,-71.129014,bell top recordings,4258 Washington St,2131,512240,Sound Recording Studios,51,Information,2.0,1 to 9,Roslindale Village,POINT (-71.129014 42.285211),,8,5
42.287798,-71.130224,bc conway court,3 Conway St,2131,531110,Lessors of Residential Buildings and Dwellings,53,Real Estate Rental and Leasing,5.0,1 to 9,Roslindale Village,POINT (-71.130224 42.287798),,8,5
42.286989,-71.12942,bay state society of model eng,760 South St,2131,541330,Engineering Services,54,"Professional, Scientific, and Technical Services",4.0,1 to 9,Roslindale Village,POINT (-71.12942 42.286989),,8,5
42.286346,-71.129049,barbering,29 Poplar St,2131,812111,Barber Shops,81,Other Services,2.0,1 to 9,Roslindale Village,POINT (-71.129049 42.286346),,8,5
42.285978,-71.129729,bank of america,29 Corinth St,2131,522110,Commercial Banking,52,Finance and Insurance,17.0,10 to 24,Roslindale Village,POINT (-71.129729 42.285978),,8,5
42.286558,-71.130017,b beauty me,18 Corinth St,2131,812112,Beauty Salons,81,Other Services,3.0,1 to 9,Roslindale Village,POINT (-71.130017 42.286558),,8,5
42.286558,-71.130017,ayan hair studios,18 Corinth St,2131,812112,Beauty Salons,81,Other Services,3.0,1 to 9,Roslindale Village,POINT (-71.130017 42.286558),,8,5
42.285211,-71.129014,arredondo family foundation,4258 Washington St,2131,541720,Research and Development in the Social Sciences and Humanities,54,"Professional, Scientific, and Technical Services",0.0,Not Available,Roslindale Village,POINT (-71.129014 42.285211),,8,5
42.286525,-71.129092,all time service,17 Poplar St,2131,541990,"All Other Professional, Scientific, and Technical Services",54,"Professional, Scientific, and Technical Services",3.0,1 to 9,Roslindale Village,POINT (-71.129092 42.286525),,8,5
42.286346,-71.129049,alexandra's beauty 1,25 Poplar St,2131,812112,Beauty Salons,81,Other Services,1.0,1 to 9,Roslindale Village,POINT (-71.129049 42.286346),,8,5
42.286346,-71.129049,alexandra & john paul salon,25 Poplar St,2131,812112,Beauty Salons,81,Other Services,2.0,1 to 9,Roslindale Village,POINT (-71.129049 42.286346),,8,5
42.286334,-71.130321,albanian private social club,17 Corinth St,2131,813410,Civic and Social Organizations,81,Other Services,5.0,1 to 9,Roslindale Village,POINT (-71.130321 42.286334),,8,5
42.286728,-71.130013,akasha studio,20 Birch St,2131,0,,99,Undefined,0.0,Not Available,Roslindale Village,POINT (-71.130013 42.286728),,8,5
42.285211,-71.129014,african & america friendship inc,4258 Washington St,2131,624110,Child and Youth Services,62,Healthcare and Social Assistance,10.0,10 to 24,Roslindale Village,POINT (-71.129014 42.285211),,8,5
42.286144,-71.127991,aca international llc,129 Newbury St,2116,541611,Administrative Management and General Management Consulting Services,54,"Professional, Scientific, and Technical Services",10.0,10 to 24,Roslindale Village,POINT (-71.127991 42.286144),,8,5
42.286076,-71.130139,abcd rosindale head start,19 Corinth St,2131,624410,Child Day Care Services,62,Healthcare and Social Assistance,44.0,25 to 49,Roslindale Village,POINT (-71.130139 42.286076),,8,5
42.287116,-71.128789,a touch of bling,737 South St,2131,812112,Beauty Salons,81,Other Services,2.0,1 to 9,Roslindale Village,POINT (-71.128789 42.287116),,8,5
42.286183,-71.129038,a plus realty group,31 Poplar St,2131,531210,Offices of Real Estate Agents and Brokers,53,Real Estate Rental and Leasing,5.0,1 to 9,Roslindale Village,POINT (-71.129038 42.286183),,8,5
42.285213,-71.128973,a & j beauty & day spa,67 Poplar St,2131,812199,Other Personal Care Services,81,Other Services,5.0,1 to 9,Roslindale Village,POINT (-71.128973 42.285213),,8,5
42.287212,-71.129242,753 south,753 South St,2131,0,,99,Undefined,0.0,Not Available,Roslindale Village,POINT (-71.129242 42.287212),,8,5
42.287052,-71.127108,7-eleven,4196 Washington St,2131,445120,Convenience Stores,44,Retail Trade,7.0,1 to 9,Roslindale Village,POINT (-71.127108 42.287052),,8,5
42.286744,-71.130442,square root caffe,2 Corinth St,2131,722511,Full-Service Restaurants,72,Accommodation and Food Services,8.0,1 to 9,Roslindale Village,POINT (-71.130442 42.286744),,8,5
42.286744,-71.130442,square root,2 Corinth St,2131,722511,Full-Service Restaurants,72,Accommodation and Food Services,8.0,1 to 9,Roslindale Village,POINT (-71.130442 42.286744),,8,5
42.286744,-71.130442,roslindale village main street,20 Belgrade Ave,2131,812990,All Other Personal Services,81,Other Services,1.0,1 to 9,Roslindale Village,POINT (-71.130442 42.286744),,8,5
42.286346,-71.129049,roslindale barbershop,29 Poplar St,2131,812111,Barber Shops,81,Other Services,2.0,1 to 9,Roslindale Village,POINT (-71.129049 42.286346),,8,5
42.286183,-71.129038,essie's kitchen,37 Poplar St,2131,337110,Wood Kitchen Cabinet and Countertop Manufacturing,33,Manufacturing,1.0,1 to 9,Roslindale Village,POINT (-71.129038 42.286183),,8,5
42.286726,-71.1299,birch street bistro,14 Birch St,2131,722511,Full-Service Restaurants,72,Accommodation and Food Services,8.0,1 to 9,Roslindale Village,POINT (-71.1299 42.286726),,8,5
42.269189,-71.094729,z nails & spa,1609 Blue Hill Ave,2126,812113,Nail Salons,81,Other Services,3.0,1 to 9,Mattapan,POINT (-71.094729 42.269189),,8,5
42.267288,-71.094315,yaa connect llc,522 River St,2126,517312,Wireless Telecommunications Carriers (except Satellite),51,Information,2.0,1 to 9,Mattapan,POINT (-71.094315 42.267288),,8,5
42.267288,-71.094315,x g wireless,522 River St,2126,517312,Wireless Telecommunications Carriers (except Satellite),51,Information,2.0,1 to 9,Mattapan,POINT (-71.094315 42.267288),,8,5
42.270957,-71.094009,wnp services,1539 Blue Hill Ave,2126,541990,"All Other Professional, Scientific, and Technical Services",54,"Professional, Scientific, and Technical Services",3.0,1 to 9,Mattapan,POINT (-71.094009 42.270957),,8,5
42.267969,-71.094159,wig shop inc,1651 Blue Hill Ave,2126,448150,Clothing Accessories Stores,44,Retail Trade,2.0,1 to 9,Mattapan,POINT (-71.094159 42.267969),,8,5
42.270957,-71.094009,watdes construction,1549 Blue Hill Ave,2126,236115,New Single-Family Housing Construction (except For-Sale Builders),23,Construction,5.0,1 to 9,Mattapan,POINT (-71.094009 42.270957),,8,5
42.269158,-71.093635,usps,1602 Blue Hill Ave,2126,491110,Postal Service,49,Transportation and Warehosuing,4.0,1 to 9,Mattapan,POINT (-71.093635 42.269158),,8,5
42.272171,-71.09388,us housing & economic development,1509 Blue Hill Ave,2126,531210,Offices of Real Estate Agents and Brokers,53,Real Estate Rental and Leasing,20.0,10 to 24,Mattapan,POINT (-71.09388 42.272171),,8,5
42.268826,-71.094207,unm educational community center,1613 Blue Hill Ave,2126,624190,Other Individual and Family Services,62,Healthcare and Social Assistance,9.0,1 to 9,Mattapan,POINT (-71.094207 42.268826),,8,5
42.268926,-71.093452,unitransfer usa inc,1612 Blue Hill Ave,2126,522320,"Financial Transactions Processing, Reserve, and Clearinghouse Activities",52,Finance and Insurance,4.0,1 to 9,Mattapan,POINT (-71.093452 42.268926),,8,5
42.270927,-71.093236,total health christian ministries,1550 Blue Hill Ave,2126,813110,Religious Organizations,81,Other Services,2.0,1 to 9,Mattapan,POINT (-71.093236 42.270927),,8,5
42.27062,-71.094049,tmw realty group,1557 Blue Hill Ave,2126,531210,Offices of Real Estate Agents and Brokers,53,Real Estate Rental and Leasing,4.0,1 to 9,Mattapan,POINT (-71.094049 42.27062),,8,5
42.267239,-71.094337,taxcomp affiliated,524 River St,2126,541213,Tax Preparation Services,54,"Professional, Scientific, and Technical Services",2.0,1 to 9,Mattapan,POINT (-71.094337 42.267239),,8,5
42.26806,-71.09405,t-mobile,1667 Blue Hill Ave,2126,517312,Wireless Telecommunications Carriers (except Satellite),51,Information,10.0,10 to 24,Mattapan,POINT (-71.09405 42.26806),,8,5
42.269817,-71.093155,super dollar,1586 Blue Hill Ave,2126,452210,Department Stores,45,Retail Trade,3.0,1 to 9,Mattapan,POINT (-71.093155 42.269817),,8,5
42.268228,-71.094145,sunny cigar store,1635 Blue Hill Ave,2126,453991,Tobacco Stores,45,Retail Trade,2.0,1 to 9,Mattapan,POINT (-71.094145 42.268228),,8,5
42.271083,-71.093207,st angela parish,1548 Blue Hill Ave,2126,813110,Religious Organizations,81,Other Services,5.0,1 to 9,Mattapan,POINT (-71.093207 42.271083),,8,5
42.267469,-71.094539,spiritco inc,525 River St,2126,0,,99,Undefined,12.0,10 to 24,Mattapan,POINT (-71.094539 42.267469),,8,5
42.272171,-71.09388,spicy nails,1509 Blue Hill Ave,2126,812113,Nail Salons,81,Other Services,2.0,1 to 9,Mattapan,POINT (-71.09388 42.272171),,8,5
42.268228,-71.094145,sony cigar,1635 Blue Hill Ave,2126,453991,Tobacco Stores,45,Retail Trade,2.0,1 to 9,Mattapan,POINT (-71.094145 42.268228),,8,5
42.272171,-71.09388,simco's takeout,1509 Blue Hill Ave,2126,722511,Full-Service Restaurants,72,Accommodation and Food Services,5.0,1 to 9,Mattapan,POINT (-71.09388 42.272171),,8,5
42.270576,-71.093262,shea butter smoothies,1556 Blue Hill Ave,2126,722511,Full-Service Restaurants,72,Accommodation and Food Services,8.0,1 to 9,Mattapan,POINT (-71.093262 42.270576),,8,5
42.268826,-71.094178,santander bank,1617 Blue Hill Ave,2126,522110,Commercial Banking,52,Finance and Insurance,6.0,1 to 9,Mattapan,POINT (-71.094178 42.268826),,8,5
42.267959,-71.093455,salameh jewelers,1652 Blue Hill Ave,2126,448310,Jewelry Stores,44,Retail Trade,2.0,1 to 9,Mattapan,POINT (-71.093455 42.267959),,8,5
42.267239,-71.094337,roy neblett tax,524 River St,2126,541211,Offices of Certified Public Accountants,54,"Professional, Scientific, and Technical Services",4.0,1 to 9,Mattapan,POINT (-71.094337 42.267239),,8,5
42.266659,-71.095636,rock acceptance co inc,544 River St,2126,524210,Insurance Agencies and Brokerages,52,Finance and Insurance,5.0,1 to 9,Mattapan,POINT (-71.095636 42.266659),,8,5
42.266896,-71.095333,rocco rose insurance,544 River St,2126,524210,Insurance Agencies and Brokerages,52,Finance and Insurance,8.0,1 to 9,Mattapan,POINT (-71.095333 42.266896),,8,5
42.272072,-71.093182,rjo motors,1514 Blue Hill Ave,2126,441120,Used Car Dealers,44,Retail Trade,3.0,1 to 9,Mattapan,POINT (-71.093182 42.272072),,8,5
42.268372,-71.093481,rainbow,1640 Blue Hill Ave,2126,448120,Women's Clothing Stores,44,Retail Trade,7.0,1 to 9,Mattapan,POINT (-71.093481 42.268372),,8,5
42.269212,-71.094003,radio energy,1601 Blue Hill Ave,2126,515112,Radio Stations,51,Information,12.0,10 to 24,Mattapan,POINT (-71.094003 42.269212),,8,5
42.272171,-71.09388,private industry collaborative,1509 Blue Hill Ave,2126,522292,Real Estate Credit,52,Finance and Insurance,10.0,10 to 24,Mattapan,POINT (-71.09388 42.272171),,8,5
42.268826,-71.094207,priority professional care llc,1613 Blue Hill Ave,2126,621330,Offices of Mental Health Practitioners (except Physicians),62,Healthcare and Social Assistance,8.0,1 to 9,Mattapan,POINT (-71.094207 42.268826),,8,5
42.270957,-71.094009,prestige united community service inc,1539 Blue Hill Ave,2126,624190,Other Individual and Family Services,62,Healthcare and Social Assistance,8.0,1 to 9,Mattapan,POINT (-71.094009 42.270957),,8,5
42.270957,-71.094009,prestige immigration service,1539 Blue Hill Ave,2126,531110,Lessors of Residential Buildings and Dwellings,53,Real Estate Rental and Leasing,3.0,1 to 9,Mattapan,POINT (-71.094009 42.270957),,8,5
42.270957,-71.094009,prestige dna services,1539 Blue Hill Ave,2126,541990,"All Other Professional, Scientific, and Technical Services",54,"Professional, Scientific, and Technical Services",3.0,1 to 9,Mattapan,POINT (-71.094009 42.270957),,8,5
42.268508,-71.094037,porta classica,1625 Blue Hill Ave,2126,448110,Men's Clothing Stores,44,Retail Trade,3.0,1 to 9,Mattapan,POINT (-71.094037 42.268508),,8,5
42.2669,-71.0948,plop plop market,532 River St,2126,445110,Supermarkets and Other Grocery (except Convenience) Stores,44,Retail Trade,2.0,1 to 9,Mattapan,POINT (-71.0948 42.2669),,8,5
42.269212,-71.094003,plg,1601 Blue Hill Ave,2126,0,,99,Undefined,0.0,Not Available,Mattapan,POINT (-71.094003 42.269212),,8,5
42.269121,-71.093442,physical therapy of greater mattapan pc,1596 Blue Hill Ave,2126,621340,"Offices of Physical, Occupational and Speech Therapists, and Audiologists",62,Healthcare and Social Assistance,5.0,1 to 9,Mattapan,POINT (-71.093442 42.269121),,8,5
42.268521,-71.093173,paradise narosmi inc,473 River St,2126,0,,99,Undefined,12.0,10 to 24,Mattapan,POINT (-71.093173 42.268521),,8,5
42.269212,-71.094003,paradise beauty salon,1601 Blue Hill Ave,2126,812112,Beauty Salons,81,Other Services,1.0,1 to 9,Mattapan,POINT (-71.094003 42.269212),,8,5
42.270957,-71.094009,one step dry cleaning,1549 Blue Hill Ave,2126,812320,Drycleaning and Laundry Services (except Coin-Operated),81,Other Services,2.0,1 to 9,Mattapan,POINT (-71.094009 42.270957),,8,5
42.27183,-71.094,oasis wellness center llc,1525 Blue Hill Ave,2126,624190,Other Individual and Family Services,62,Healthcare and Social Assistance,8.0,1 to 9,Mattapan,POINT (-71.094 42.27183),,8,5
42.267172,-71.094413,norra z,530 River St,2126,452319,All Other General Merchandise Stores,45,Retail Trade,0.0,Not Available,Mattapan,POINT (-71.094413 42.267172),,8,5
42.270957,-71.094009,nareb region 1,1539 Blue Hill Ave,2126,531210,Offices of Real Estate Agents and Brokers,53,Real Estate Rental and Leasing,10.0,10 to 24,Mattapan,POINT (-71.094009 42.270957),,8,5
42.270576,-71.093262,mobil,1556 Blue Hill Ave,2126,447190,Other Gasoline Stations,44,Retail Trade,5.0,1 to 9,Mattapan,POINT (-71.093262 42.270576),,8,5
42.268144,-71.093143,mike's shoe repair,483 River St,2126,448210,Shoe Stores,44,Retail Trade,1.0,1 to 9,Mattapan,POINT (-71.093143 42.268144),,8,5
42.268144,-71.093143,mike's shoe palace,483 River St,2126,448210,Shoe Stores,44,Retail Trade,5.0,1 to 9,Mattapan,POINT (-71.093143 42.268144),,8,5
42.267929,-71.093452,metro by t-mobile-authorized retailer,1656 Blue Hill Ave,2126,517312,Wireless Telecommunications Carriers (except Satellite),51,Information,2.0,1 to 9,Mattapan,POINT (-71.093452 42.267929),,8,5
42.269555,-71.094024,mera market,1587 Blue Hill Ave,2126,445120,Convenience Stores,44,Retail Trade,2.0,1 to 9,Mattapan,POINT (-71.094024 42.269555),,8,5
42.267969,-71.094159,mattapan's finest barbers,1651 Blue Hill Ave,2126,812111,Barber Shops,81,Other Services,2.0,1 to 9,Mattapan,POINT (-71.094159 42.267969),,8,5
42.270576,-71.093262,mattapan square mobil,1556 Blue Hill Ave,2126,447190,Other Gasoline Stations,44,Retail Trade,2.0,1 to 9,Mattapan,POINT (-71.093262 42.270576),,8,5
42.267215,-71.095527,mattapan square main streets,535 River St,2126,813319,Other Social Advocacy Organizations,81,Other Services,7.0,1 to 9,Mattapan,POINT (-71.095527 42.267215),,8,5
42.267239,-71.094337,mattapan square main street,524 River St,2126,624229,Other Community Housing Services,62,Healthcare and Social Assistance,1.0,1 to 9,Mattapan,POINT (-71.094337 42.267239),,8,5
42.27183,-71.094,mattapan obstetrics & pediatrics,1525 Blue Hill Ave,2126,621493,Freestanding Ambulatory Surgical and Emergency Centers,62,Healthcare and Social Assistance,2.0,1 to 9,Mattapan,POINT (-71.094 42.27183),,8,5
42.268449,-71.09404,mattapan house of pizza,1631 Blue Hill Ave,2126,722511,Full-Service Restaurants,72,Accommodation and Food Services,7.0,1 to 9,Mattapan,POINT (-71.09404 42.268449),,8,5
42.269967,-71.094194,"mattapan health center fund, inc",1575 Blue Hill Ave,2126,531210,Offices of Real Estate Agents and Brokers,53,Real Estate Rental and Leasing,5.0,1 to 9,Mattapan,POINT (-71.094194 42.269967),,8,5
42.268826,-71.094207,mattapan food & fitness cltn,1613 Blue Hill Ave,2126,621999,All Other Miscellaneous Ambulatory Health Care Services,62,Healthcare and Social Assistance,8.0,1 to 9,Mattapan,POINT (-71.094207 42.268826),,8,5
42.269428,-71.093993,mattapan family laundrymat,1591 Blue Hill Ave,2126,812310,Coin-Operated Laundries and Drycleaners,81,Other Services,2.0,1 to 9,Mattapan,POINT (-71.093993 42.269428),,8,5
42.269967,-71.094194,"mattapan community health center, inc",1575 Blue Hill Ave,2126,0,,99,Undefined,4.0,1 to 9,Mattapan,POINT (-71.094194 42.269967),,8,5
42.269967,-71.094194,mattapan community health,1575 Blue Hill Ave,2126,621493,Freestanding Ambulatory Surgical and Emergency Centers,62,Healthcare and Social Assistance,85.0,50 to 99,Mattapan,POINT (-71.094194 42.269967),,8,5
42.270957,-71.094009,mattapan community development corp,1539 Blue Hill Ave,2126,813319,Other Social Advocacy Organizations,81,Other Services,9.0,1 to 9,Mattapan,POINT (-71.094009 42.270957),,8,5
42.267027,-71.095891,mattapan center for life,555 River St,2126,621610,Home Health Care Services,62,Healthcare and Social Assistance,3.0,1 to 9,Mattapan,POINT (-71.095891 42.267027),,8,5
42.268826,-71.094207,mattapan board of trade,1613 Blue Hill Ave,2126,813910,Business Associations,81,Other Services,2.0,1 to 9,Mattapan,POINT (-71.094207 42.268826),,8,5
42.269328,-71.093261,matapan sun fish lee,1600 Blue Hill Ave,2126,445220,Fish and Seafood Markets,44,Retail Trade,3.0,1 to 9,Mattapan,POINT (-71.093261 42.269328),,8,5
42.26833,-71.094046,masud enterprise inc,1643 Blue Hill Ave,2126,813319,Other Social Advocacy Organizations,81,Other Services,9.0,1 to 9,Mattapan,POINT (-71.094046 42.26833),,8,5
42.266546,-71.095937,mamas timarchee,556 River St,2126,445110,Supermarkets and Other Grocery (except Convenience) Stores,44,Retail Trade,1.0,1 to 9,Mattapan,POINT (-71.095937 42.266546),,8,5
42.267969,-71.094159,luminati ink,1651 Blue Hill Ave,2126,512240,Sound Recording Studios,51,Information,2.0,1 to 9,Mattapan,POINT (-71.094159 42.267969),,8,5
42.2669,-71.0948,living well rehab center inc,534 River St,2126,624310,Vocational Rehabilitation Services,62,Healthcare and Social Assistance,7.0,1 to 9,Mattapan,POINT (-71.0948 42.2669),,8,5
42.267969,-71.094159,live studio entertainment,1651 Blue Hill Ave,2126,512240,Sound Recording Studios,51,Information,2.0,1 to 9,Mattapan,POINT (-71.094159 42.267969),,8,5
42.267172,-71.094413,liberty tax service,530 River St,2126,541213,Tax Preparation Services,54,"Professional, Scientific, and Technical Services",6.0,1 to 9,Mattapan,POINT (-71.094413 42.267172),,8,5
42.268091,-71.094153,lehi mortgage services,1649 Blue Hill Ave,2126,531210,Offices of Real Estate Agents and Brokers,53,Real Estate Rental and Leasing,5.0,1 to 9,Mattapan,POINT (-71.094153 42.268091),,8,5
42.270997,-71.09394,lawson barber & beauty,1541 Blue Hill Ave,2126,812111,Barber Shops,81,Other Services,2.0,1 to 9,Mattapan,POINT (-71.09394 42.270997),,8,5
42.269169,-71.09344,las vegas express,1592 Blue Hill Ave,2126,722511,Full-Service Restaurants,72,Accommodation and Food Services,8.0,1 to 9,Mattapan,POINT (-71.09344 42.269169),,8,5
42.266645,-71.095759,l'eternal estate grand,552 River St,2126,443142,Electronics Stores,44,Retail Trade,3.0,1 to 9,Mattapan,POINT (-71.095759 42.266645),,8,5
42.268978,-71.094205,kool smiles,1615 Blue Hill Ave,2126,621210,Offices of Dentists,62,Healthcare and Social Assistance,6.0,1 to 9,Mattapan,POINT (-71.094205 42.268978),,8,5
42.268926,-71.093452,ketou boutique,1612A Blue Hill Ave,2126,448120,Women's Clothing Stores,44,Retail Trade,1.0,1 to 9,Mattapan,POINT (-71.093452 42.268926),,8,5
42.270927,-71.093236,keke financial services,1550 Blue Hill Ave,2126,523930,Investment Advice,52,Finance and Insurance,2.0,1 to 9,Mattapan,POINT (-71.093236 42.270927),,8,5
42.269212,-71.094003,job corps,1601 Blue Hill Ave,2126,0,,99,Undefined,0.0,Not Available,Mattapan,POINT (-71.094003 42.269212),,8,5
42.268091,-71.094153,jeremy robert llm offic,1641 Blue Hill Ave,2126,541930,Translation and Interpretation Services,54,"Professional, Scientific, and Technical Services",5.0,1 to 9,Mattapan,POINT (-71.094153 42.268091),,8,5
42.270957,-71.094009,ideal financial group,1539 Blue Hill Ave,2126,523930,Investment Advice,52,Finance and Insurance,9.0,1 to 9,Mattapan,POINT (-71.094009 42.270957),,8,5
42.270664,-71.093948,hyde park choice chiropractic,1551 Blue Hill Ave,2126,621310,Offices of Chiropractors,62,Healthcare and Social Assistance,1.0,1 to 9,Mattapan,POINT (-71.093948 42.270664),,8,5
42.269588,-71.092941,hope chiropractic clinic,1594 Blue Hill Ave,2126,621310,Offices of Chiropractors,62,Healthcare and Social Assistance,3.0,1 to 9,Mattapan,POINT (-71.092941 42.269588),,8,5
42.2669,-71.0948,harvard street health center,532 River St,2126,624190,Other Individual and Family Services,62,Healthcare and Social Assistance,2.0,1 to 9,Mattapan,POINT (-71.0948 42.2669),,8,5
42.268456,-71.094177,happy liquors ii,1633 Blue Hill Ave,2126,445310,"Beer, Wine, and Liquor Stores",44,Retail Trade,2.0,1 to 9,Mattapan,POINT (-71.094177 42.268456),,8,5
42.269817,-71.093155,happy dollar,1586 Blue Hill Ave,2126,452319,All Other General Merchandise Stores,45,Retail Trade,2.0,1 to 9,Mattapan,POINT (-71.093155 42.269817),,8,5
42.269168,-71.094005,haphi,1603 Blue Hill Ave,2126,813319,Other Social Advocacy Organizations,81,Other Services,10.0,10 to 24,Mattapan,POINT (-71.094005 42.269168),,8,5
42.268449,-71.094185,haphi,10 Fairway St,2126,813110,Religious Organizations,81,Other Services,0.0,Not Available,Mattapan,POINT (-71.094185 42.268449),,8,5
42.268449,-71.094185,haitian americans united inc,10 Fairway St,2126,813311,Human Rights Organizations,81,Other Services,4.0,1 to 9,Mattapan,POINT (-71.094185 42.268449),,8,5
42.26853,-71.093471,hair stop,1624 Blue Hill Ave,2126,812112,Beauty Salons,81,Other Services,5.0,1 to 9,Mattapan,POINT (-71.093471 42.26853),,8,5
42.267859,-71.09416,h & r block,1663 Blue Hill Ave,2126,523930,Investment Advice,52,Finance and Insurance,2.0,1 to 9,Mattapan,POINT (-71.09416 42.267859),,8,5
42.269428,-71.093993,grenada american tours inc,1591 Blue Hill Ave,2126,561520,Tour Operators,56,"Adminstrative, Support, Waste Management, and Remediation Services",8.0,1 to 9,Mattapan,POINT (-71.093993 42.269428),,8,5
42.268902,-71.093453,golden krust caribbean bakery & grill,1614 Blue Hill Ave,2126,722511,Full-Service Restaurants,72,Accommodation and Food Services,5.0,1 to 9,Mattapan,POINT (-71.093453 42.268902),,8,5
42.27062,-71.094049,glorious church of jesus christ,1557 Blue Hill Ave,2126,813110,Religious Organizations,81,Other Services,3.0,1 to 9,Mattapan,POINT (-71.094049 42.27062),,8,5
42.268521,-71.093173,globus dental care center at mattapan,1634 Blue Hill Ave,2126,621210,Offices of Dentists,62,Healthcare and Social Assistance,4.0,1 to 9,Mattapan,POINT (-71.093173 42.268521),,8,5
42.268208,-71.094131,g insurance & multi service,,2126,524210,Insurance Agencies and Brokerages,52,Finance and Insurance,1.0,1 to 9,Mattapan,POINT (-71.094131 42.268208),,8,5
42.269287,-71.094093,frugal furniture of west roxbury inc,1599 Blue Hill Ave,2126,442110,Furniture Stores,44,Retail Trade,2.0,1 to 9,Mattapan,POINT (-71.094093 42.269287),,8,5
42.269287,-71.094093,frugal furniture of dorchester inc,1599 Blue Hill Ave,2126,442110,Furniture Stores,44,Retail Trade,2.0,1 to 9,Mattapan,POINT (-71.094093 42.269287),,8,5
42.269287,-71.094093,frugal furniture of chelsea inc,1599 Blue Hill Ave,2126,442110,Furniture Stores,44,Retail Trade,2.0,1 to 9,Mattapan,POINT (-71.094093 42.269287),,8,5
42.269096,-71.093444,fredas unisex,1598 Blue Hill Ave,2126,812112,Beauty Salons,81,Other Services,3.0,1 to 9,Mattapan,POINT (-71.093444 42.269096),,8,5
42.269189,-71.094729,freda's barber & unisex,1595 Blue Hill Ave,2126,812111,Barber Shops,81,Other Services,2.0,1 to 9,Mattapan,POINT (-71.094729 42.269189),,8,5
42.270957,-71.094009,fpf air shipiping,1549 Blue Hill Ave,2126,488510,Freight Transportation Arrangement,48,Transportation and Warehosuing,5.0,1 to 9,Mattapan,POINT (-71.094009 42.270957),,8,5
42.266546,-71.095937,four seasons cargo plus service,556 River St,2126,522320,"Financial Transactions Processing, Reserve, and Clearinghouse Activities",52,Finance and Insurance,4.0,1 to 9,Mattapan,POINT (-71.095937 42.266546),,8,5
42.268471,-71.093475,expressions,1630 Blue Hill Ave,2126,448140,Family Clothing Stores,44,Retail Trade,9.0,1 to 9,Mattapan,POINT (-71.093475 42.268471),,8,5
42.270957,-71.094009,echo evangelique-radio lumiere,1539 Blue Hill Ave,2126,515112,Radio Stations,51,Information,4.0,1 to 9,Mattapan,POINT (-71.094009 42.270957),,8,5
42.268091,-71.094153,ebeneze boutique,1647 Blue Hill Ave,2126,448120,Women's Clothing Stores,44,Retail Trade,2.0,1 to 9,Mattapan,POINT (-71.094153 42.268091),,8,5
42.268548,-71.094035,dunkin',1621 Blue Hill Ave,2126,722515,Snack and Nonalcoholic Beverage Bars,72,Accommodation and Food Services,12.0,10 to 24,Mattapan,POINT (-71.094035 42.268548),,8,5
42.272072,-71.093182,domino's,1514 Blue Hill Ave,2126,722511,Full-Service Restaurants,72,Accommodation and Food Services,8.0,1 to 9,Mattapan,POINT (-71.093182 42.272072),,8,5
42.26833,-71.094046,dmm retailers inc,1643 Blue Hill Ave,2126,452319,All Other General Merchandise Stores,45,Retail Trade,2.0,1 to 9,Mattapan,POINT (-71.094046 42.26833),,8,5
42.268469,-71.094039,"dane shulman associates, llc",1629 Blue Hill Ave,2126,541110,Offices of Lawyers,54,"Professional, Scientific, and Technical Services",18.0,10 to 24,Mattapan,POINT (-71.094039 42.268469),,8,5
42.269967,-71.094194,cvs pharmacy,1575 Blue Hill Ave,2126,446110,Pharmacies and Drug Stores,44,Retail Trade,14.0,10 to 24,Mattapan,POINT (-71.094194 42.269967),,8,5
42.267288,-71.094315,cricket wireless authorized retailer,522 River St,2126,517312,Wireless Telecommunications Carriers (except Satellite),51,Information,4.0,1 to 9,Mattapan,POINT (-71.094315 42.267288),,8,5
42.270957,-71.094009,consumer financial service,1539 Blue Hill Ave,2126,531210,Offices of Real Estate Agents and Brokers,53,Real Estate Rental and Leasing,12.0,10 to 24,Mattapan,POINT (-71.094009 42.270957),,8,5
42.270957,-71.094009,concord promo,1539 Blue Hill Ave,2126,561422,Telemarketing Bureaus and Other Contact Centers,56,"Adminstrative, Support, Waste Management, and Remediation Services",30.0,25 to 49,Mattapan,POINT (-71.094009 42.270957),,8,5
42.272171,-71.09388,commonwealth community service corporation,1509 Blue Hill Ave,2126,624190,Other Individual and Family Services,62,Healthcare and Social Assistance,8.0,1 to 9,Mattapan,POINT (-71.09388 42.272171),,8,5
42.268449,-71.094185,comeback physical therapy inc,10 Fairway St,2126,621340,"Offices of Physical, Occupational and Speech Therapists, and Audiologists",62,Healthcare and Social Assistance,4.0,1 to 9,Mattapan,POINT (-71.094185 42.268449),,8,5
42.269169,-71.09344,claudy dieudane las vegas,1592 Blue Hill Ave,2126,483211,Inland Water Freight Transportation,48,Transportation and Warehosuing,9.0,1 to 9,Mattapan,POINT (-71.09344 42.269169),,8,5
42.267206,-71.094779,church of the holy spirit of mattapan,525 River St,2126,813110,Religious Organizations,81,Other Services,4.0,1 to 9,Mattapan,POINT (-71.094779 42.267206),,8,5
42.270758,-71.094003,choice fm,1553 Blue Hill Ave,2126,515112,Radio Stations,51,Information,15.0,10 to 24,Mattapan,POINT (-71.094003 42.270758),,8,5
42.267172,-71.094413,"chico cab, inc",530 River St,2126,485310,Taxi Service,48,Transportation and Warehosuing,12.0,10 to 24,Mattapan,POINT (-71.094413 42.267172),,8,5
42.268826,-71.094178,chase,1617 Blue Hill Ave,2126,522110,Commercial Banking,52,Finance and Insurance,7.0,1 to 9,Mattapan,POINT (-71.094178 42.268826),,8,5
42.270957,-71.094009,cfs realty & management inc,1539 Blue Hill Ave,2126,531210,Offices of Real Estate Agents and Brokers,53,Real Estate Rental and Leasing,10.0,10 to 24,Mattapan,POINT (-71.094009 42.270957),,8,5
42.272171,-71.09388,cfs realty & management corp,1509 Blue Hill Ave,2126,531210,Offices of Real Estate Agents and Brokers,53,Real Estate Rental and Leasing,5.0,1 to 9,Mattapan,POINT (-71.09388 42.272171),,8,5
42.267859,-71.09416,cell health for life & fitness,1663 Blue Hill Ave,2126,621999,All Other Miscellaneous Ambulatory Health Care Services,62,Healthcare and Social Assistance,10.0,10 to 24,Mattapan,POINT (-71.09416 42.267859),,8,5
42.270864,-71.093944,carolyn's hair salon,1545 Blue Hill Ave,2126,812112,Beauty Salons,81,Other Services,3.0,1 to 9,Mattapan,POINT (-71.093944 42.270864),,8,5
42.270957,-71.094009,caring dental center,1539 Blue Hill Ave,2126,621210,Offices of Dentists,62,Healthcare and Social Assistance,3.0,1 to 9,Mattapan,POINT (-71.094009 42.270957),,8,5
42.268978,-71.094205,caribbean choice & varieties,1615 Blue Hill Ave,2126,424990,Other Miscellaneous Nondurable Goods Merchant Wholesalers,42,Wholesale Trade,4.0,1 to 9,Mattapan,POINT (-71.094205 42.268978),,8,5
42.266651,-71.095482,camilo liquor & market,7 Edgewater Dr,2126,445310,"Beer, Wine, and Liquor Stores",44,Retail Trade,4.0,1 to 9,Mattapan,POINT (-71.095482 42.266651),,8,5
42.267172,-71.094413,"camille cab, inc",530 River St,2126,485310,Taxi Service,48,Transportation and Warehosuing,12.0,10 to 24,Mattapan,POINT (-71.094413 42.267172),,8,5
42.268091,-71.094153,cam mattapan carribean air mail,1645 Blue Hill Ave,2126,0,,99,Undefined,2.0,1 to 9,Mattapan,POINT (-71.094153 42.268091),,8,5
42.26721,-71.09438,cadexco,526 River St,2126,451211,Book Stores,45,Retail Trade,1.0,1 to 9,Mattapan,POINT (-71.09438 42.26721),,8,5
42.267005,-71.094707,budglow general supplies inc,542 River St,2126,452319,All Other General Merchandise Stores,45,Retail Trade,2.0,1 to 9,Mattapan,POINT (-71.094707 42.267005),,8,5
42.269096,-71.094109,bsw boston mattapan blue hill,1611 Blue Hill Ave,2126,812112,Beauty Salons,81,Other Services,10.0,10 to 24,Mattapan,POINT (-71.094109 42.269096),,8,5
42.269189,-71.094729,bsw beauty mattapan llc,1595 Blue Hill Ave,2126,812112,Beauty Salons,81,Other Services,2.0,1 to 9,Mattapan,POINT (-71.094729 42.269189),,8,5
42.27062,-71.094049,bsw alteration specialist,1557 Blue Hill Ave,2126,448190,Other Clothing Stores,44,Retail Trade,2.0,1 to 9,Mattapan,POINT (-71.094049 42.27062),,8,5
42.27062,-71.094049,bsw alteration,1557 Blue Hill Ave,2126,453998,All Other Miscellaneous Store Retailers (except Tobacco Stores),45,Retail Trade,4.0,1 to 9,Mattapan,POINT (-71.094049 42.27062),,8,5
42.268213,-71.09349,brothers deli & restaurant,1638 Blue Hill Ave,2126,722511,Full-Service Restaurants,72,Accommodation and Food Services,6.0,1 to 9,Mattapan,POINT (-71.09349 42.268213),,8,5
42.269212,-71.094003,boston trust realty group commercial,1601 Blue Hill Ave,2126,531210,Offices of Real Estate Agents and Brokers,53,Real Estate Rental and Leasing,2.0,1 to 9,Mattapan,POINT (-71.094003 42.269212),,8,5
42.267859,-71.09416,boston mobil physical therapy,1663 Blue Hill Ave,2126,621340,"Offices of Physical, Occupational and Speech Therapists, and Audiologists",62,Healthcare and Social Assistance,4.0,1 to 9,Mattapan,POINT (-71.09416 42.267859),,8,5
42.272072,-71.093182,boston attorneys,1514 Blue Hill Ave,2126,541110,Offices of Lawyers,54,"Professional, Scientific, and Technical Services",4.0,1 to 9,Mattapan,POINT (-71.093182 42.272072),,8,5
42.27062,-71.094049,biz unisex barber salon,1557 Blue Hill Ave,2126,812111,Barber Shops,81,Other Services,3.0,1 to 9,Mattapan,POINT (-71.094049 42.27062),,8,5
42.267469,-71.094539,beltop services,525 River St,2126,541990,"All Other Professional, Scientific, and Technical Services",54,"Professional, Scientific, and Technical Services",3.0,1 to 9,Mattapan,POINT (-71.094539 42.267469),,8,5
42.271293,-71.094033,becko church of god,1537 Blue Hill Ave,2126,813110,Religious Organizations,81,Other Services,2.0,1 to 9,Mattapan,POINT (-71.094033 42.271293),,8,5
42.271992,-71.093109,be pain free pt,1520 Blue Hill Ave,2126,621340,"Offices of Physical, Occupational and Speech Therapists, and Audiologists",62,Healthcare and Social Assistance,4.0,1 to 9,Mattapan,POINT (-71.093109 42.271992),,8,5
42.272072,-71.093182,bay associates,1514 Blue Hill Ave,2126,541330,Engineering Services,54,"Professional, Scientific, and Technical Services",3.0,1 to 9,Mattapan,POINT (-71.093182 42.272072),,8,5
42.271992,-71.093109,barron chiropractic & rehabilitation pc,1520 Blue Hill Ave,2126,621310,Offices of Chiropractors,62,Healthcare and Social Assistance,8.0,1 to 9,Mattapan,POINT (-71.093109 42.271992),,8,5
42.267239,-71.094337,axiom,524 River St,2126,0,,99,Undefined,0.0,Not Available,Mattapan,POINT (-71.094337 42.267239),,8,5
42.269474,-71.09323,auto service & tires inc,1590 Blue Hill Ave,2126,811121,"Automotive Body, Paint, and Interior Repair and Maintenance",81,Other Services,34.0,25 to 49,Mattapan,POINT (-71.09323 42.269474),,8,5
42.269328,-71.093261,angelique health services,1600 Blue Hill Ave,2126,621999,All Other Miscellaneous Ambulatory Health Care Services,62,Healthcare and Social Assistance,10.0,10 to 24,Mattapan,POINT (-71.093261 42.269328),,8,5
42.271523,-71.09401,american legion,1531 Blue Hill Ave,2126,813410,Civic and Social Organizations,81,Other Services,4.0,1 to 9,Mattapan,POINT (-71.09401 42.271523),,8,5
42.268826,-71.094207,alovias health services,1613 Blue Hill Ave,2126,621999,All Other Miscellaneous Ambulatory Health Care Services,62,Healthcare and Social Assistance,10.0,10 to 24,Mattapan,POINT (-71.094207 42.268826),,8,5
42.268826,-71.094207,affordable medical & leisure inc,1613 Blue Hill Ave,2126,423450,"Medical, Dental, and Hospital Equipment and Supplies Merchant Wholesalers",42,Wholesale Trade,5.0,1 to 9,Mattapan,POINT (-71.094207 42.268826),,8,5
42.268091,-71.094153,adonai boutique,1645 Blue Hill Ave,2126,448120,Women's Clothing Stores,44,Retail Trade,2.0,1 to 9,Mattapan,POINT (-71.094153 42.268091),,8,5
42.267215,-71.095527,action for boston community development,535 River St,2126,813319,Other Social Advocacy Organizations,81,Other Services,10.0,10 to 24,Mattapan,POINT (-71.095527 42.267215),,8,5
42.267215,-71.095527,abcd mattapan headstart,535 River St,2126,624410,Child Day Care Services,62,Healthcare and Social Assistance,40.0,25 to 49,Mattapan,POINT (-71.095527 42.267215),,8,5
42.267215,-71.095527,abcd mattapan family service center,535 River St,2126,624410,Child Day Care Services,62,Healthcare and Social Assistance,20.0,10 to 24,Mattapan,POINT (-71.095527 42.267215),,8,5
42.268826,-71.094207,abbey rd home care services inc,1613 Blue Hill Ave,2126,621610,Home Health Care Services,62,Healthcare and Social Assistance,30.0,25 to 49,Mattapan,POINT (-71.094207 42.268826),,8,5
42.269212,-71.094003,aahbis hair weaving salon,1601 Blue Hill Ave,2126,812199,Other Personal Care Services,81,Other Services,3.0,1 to 9,Mattapan,POINT (-71.094003 42.269212),,8,5
42.268312,-71.093484,"a-affordable insurance agency, inc",1646 Blue Hill Ave,2126,524210,Insurance Agencies and Brokerages,52,Finance and Insurance,2.0,1 to 9,Mattapan,POINT (-71.093484 42.268312),,8,5
42.267005,-71.094707,a & c liquors inc,542 River St,2126,445310,"Beer, Wine, and Liquor Stores",44,Retail Trade,3.0,1 to 9,Mattapan,POINT (-71.094707 42.267005),,8,5
42.266546,-71.095937,556 riverside market,556 River St,2126,445120,Convenience Stores,44,Retail Trade,2.0,1 to 9,Mattapan,POINT (-71.095937 42.266546),,8,5
42.267288,-71.094315,right taste jamaican restaurant,522 River St,2126,722511,Full-Service Restaurants,72,Accommodation and Food Services,2.0,1 to 9,Mattapan,POINT (-71.094315 42.267288),,8,5
